{
  "type": "FeatureCollection",
  "features": [
    {
      "type": "Feature",
      "id": "S2B_MSIL2A_20250220T080859_R078_T35MRT_20250220T102720",
      "geometry": {
        "type": "Polygon",
        "coordinates": [
          [
            [
              29.6961769,
              -1.8072608
            ],
            [
              30.6818577,
              -1.8055187
            ],
            [
              30.684405,
              -2.796832
            ],
            [
              29.6980446,
              -2.7995317
            ],
            [
              29.6961769,
              -1.8072608
            ]
          ]
        ]
      },
      "properties": {
        "id": "S2B_MSIL2A_20250220T080859_R078_T35MRT_20250220T102720",
        "collection": "sentinel-2-l2a",
        "datetime": "2025-02-20T08:08:59.024000Z",
        "cloud_cover": 2.971523,
        "assets": {
          "AOT": "https://sentinel2l2a01.blob.core.windows.net/sentinel2-l2/35/M/RT/2025/02/20/S2B_MSIL2A_20250220T080859_N0511_R078_T35MRT_20250220T102720.SAFE/GRANULE/L2A_T35MRT_A041574_20250220T082908/IMG_DATA/R10m/T35MRT_20250220T080859_AOT_10m.tif",
          "B01": "https://sentinel2l2a01.blob.core.windows.net/sentinel2-l2/35/M/RT/2025/02/20/S2B_MSIL2A_20250220T080859_N0511_R078_T35MRT_20250220T102720.SAFE/GRANULE/L2A_T35MRT_A041574_20250220T082908/IMG_DATA/R60m/T35MRT_20250220T080859_B01_60m.tif",
          "B02": "https://sentinel2l2a01.blob.core.windows.net/sentinel2-l2/35/M/RT/2025/02/20/S2B_MSIL2A_20250220T080859_N0511_R078_T35MRT_20250220T102720.SAFE/GRANULE/L2A_T35MRT_A041574_20250220T082908/IMG_DATA/R10m/T35MRT_20250220T080859_B02_10m.tif",
          "B03": "https://sentinel2l2a01.blob.core.windows.net/sentinel2-l2/35/M/RT/2025/02/20/S2B_MSIL2A_20250220T080859_N0511_R078_T35MRT_20250220T102720.SAFE/GRANULE/L2A_T35MRT_A041574_20250220T082908/IMG_DATA/R10m/T35MRT_20250220T080859_B03_10m.tif",
          "B04": "https://sentinel2l2a01.blob.core.windows.net/sentinel2-l2/35/M/RT/2025/02/20/S2B_MSIL2A_20250220T080859_N0511_R078_T35MRT_20250220T102720.SAFE/GRANULE/L2A_T35MRT_A041574_20250220T082908/IMG_DATA/R10m/T35MRT_20250220T080859_B04_10m.tif",
          "B05": "https://sentinel2l2a01.blob.core.windows.net/sentinel2-l2/35/M/RT/2025/02/20/S2B_MSIL2A_20250220T080859_N0511_R078_T35MRT_20250220T102720.SAFE/GRANULE/L2A_T35MRT_A041574_20250220T082908/IMG_DATA/R20m/T35MRT_20250220T080859_B05_20m.tif",
          "B06": "https://sentinel2l2a01.blob.core.windows.net/sentinel2-l2/35/M/RT/2025/02/20/S2B_MSIL2A_20250220T080859_N0511_R078_T35MRT_20250220T102720.SAFE/GRANULE/L2A_T35MRT_A041574_20250220T082908/IMG_DATA/R20m/T35MRT_20250220T080859_B06_20m.tif",
          "B07": "https://sentinel2l2a01.blob.core.windows.net/sentinel2-l2/35/M/RT/2025/02/20/S2B_MSIL2A_20250220T080859_N0511_R078_T35MRT_20250220T102720.SAFE/GRANULE/L2A_T35MRT_A041574_20250220T082908/IMG_DATA/R20m/T35MRT_20250220T080859_B07_20m.tif",
          "B08": "https://sentinel2l2a01.blob.core.windows.net/sentinel2-l2/35/M/RT/2025/02/20/S2B_MSIL2A_20250220T080859_N0511_R078_T35MRT_20250220T102720.SAFE/GRANULE/L2A_T35MRT_A041574_20250220T082908/IMG_DATA/R10m/T35MRT_20250220T080859_B08_10m.tif",
          "B09": "https://sentinel2l2a01.blob.core.windows.net/sentinel2-l2/35/M/RT/2025/02/20/S2B_MSIL2A_20250220T080859_N0511_R078_T35MRT_20250220T102720.SAFE/GRANULE/L2A_T35MRT_A041574_20250220T082908/IMG_DATA/R60m/T35MRT_20250220T080859_B09_60m.tif",
          "B11": "https://sentinel2l2a01.blob.core.windows.net/sentinel2-l2/35/M/RT/2025/02/20/S2B_MSIL2A_20250220T080859_N0511_R078_T35MRT_20250220T102720.SAFE/GRANULE/L2A_T35MRT_A041574_20250220T082908/IMG_DATA/R20m/T35MRT_20250220T080859_B11_20m.tif",
          "B12": "https://sentinel2l2a01.blob.core.windows.net/sentinel2-l2/35/M/RT/2025/02/20/S2B_MSIL2A_20250220T080859_N0511_R078_T35MRT_20250220T102720.SAFE/GRANULE/L2A_T35MRT_A041574_20250220T082908/IMG_DATA/R20m/T35MRT_20250220T080859_B12_20m.tif",
          "B8A": "https://sentinel2l2a01.blob.core.windows.net/sentinel2-l2/35/M/RT/2025/02/20/S2B_MSIL2A_20250220T080859_N0511_R078_T35MRT_20250220T102720.SAFE/GRANULE/L2A_T35MRT_A041574_20250220T082908/IMG_DATA/R20m/T35MRT_20250220T080859_B8A_20m.tif",
          "SCL": "https://sentinel2l2a01.blob.core.windows.net/sentinel2-l2/35/M/RT/2025/02/20/S2B_MSIL2A_20250220T080859_N0511_R078_T35MRT_20250220T102720.SAFE/GRANULE/L2A_T35MRT_A041574_20250220T082908/IMG_DATA/R20m/T35MRT_20250220T080859_SCL_20m.tif",
          "WVP": "https://sentinel2l2a01.blob.core.windows.net/sentinel2-l2/35/M/RT/2025/02/20/S2B_MSIL2A_20250220T080859_N0511_R078_T35MRT_20250220T102720.SAFE/GRANULE/L2A_T35MRT_A041574_20250220T082908/IMG_DATA/R10m/T35MRT_20250220T080859_WVP_10m.tif",
          "visual": "https://sentinel2l2a01.blob.core.windows.net/sentinel2-l2/35/M/RT/2025/02/20/S2B_MSIL2A_20250220T080859_N0511_R078_T35MRT_20250220T102720.SAFE/GRANULE/L2A_T35MRT_A041574_20250220T082908/IMG_DATA/R10m/T35MRT_20250220T080859_TCI_10m.tif",
          "safe-manifest": "https://sentinel2l2a01.blob.core.windows.net/sentinel2-l2/35/M/RT/2025/02/20/S2B_MSIL2A_20250220T080859_N0511_R078_T35MRT_20250220T102720.SAFE/manifest.safe",
          "granule-metadata": "https://sentinel2l2a01.blob.core.windows.net/sentinel2-l2/35/M/RT/2025/02/20/S2B_MSIL2A_20250220T080859_N0511_R078_T35MRT_20250220T102720.SAFE/GRANULE/L2A_T35MRT_A041574_20250220T082908/MTD_TL.xml",
          "inspire-metadata": "https://sentinel2l2a01.blob.core.windows.net/sentinel2-l2/35/M/RT/2025/02/20/S2B_MSIL2A_20250220T080859_N0511_R078_T35MRT_20250220T102720.SAFE/INSPIRE.xml",
          "product-metadata": "https://sentinel2l2a01.blob.core.windows.net/sentinel2-l2/35/M/RT/2025/02/20/S2B_MSIL2A_20250220T080859_N0511_R078_T35MRT_20250220T102720.SAFE/MTD_MSIL2A.xml",
          "datastrip-metadata": "https://sentinel2l2a01.blob.core.windows.net/sentinel2-l2/35/M/RT/2025/02/20/S2B_MSIL2A_20250220T080859_N0511_R078_T35MRT_20250220T102720.SAFE/DATASTRIP/DS_2BPS_20250220T102720_S20250220T082908/MTD_DS.xml",
          "tilejson": "https://planetarycomputer.microsoft.com/api/data/v1/item/tilejson.json?collection=sentinel-2-l2a&item=S2B_MSIL2A_20250220T080859_R078_T35MRT_20250220T102720&assets=visual&asset_bidx=visual%7C1%2C2%2C3&nodata=0&format=png",
          "rendered_preview": "https://planetarycomputer.microsoft.com/api/data/v1/item/preview.png?collection=sentinel-2-l2a&item=S2B_MSIL2A_20250220T080859_R078_T35MRT_20250220T102720&assets=visual&asset_bidx=visual%7C1%2C2%2C3&nodata=0&format=png"
        },
        "stac_properties": {
          "datetime": "2025-02-20T08:08:59.024000Z",
          "platform": "Sentinel-2B",
          "instruments": [
            "msi"
          ],
          "s2:mgrs_tile": "35MRT",
          "constellation": "Sentinel 2",
          "s2:granule_id": "S2B_OPER_MSI_L2A_TL_2BPS_20250220T102720_A041574_T35MRT_N05.11",
          "eo:cloud_cover": 2.971523,
          "s2:datatake_id": "GS2B_20250220T080859_041574_N05.11",
          "s2:product_uri": "S2B_MSIL2A_20250220T080859_N0511_R078_T35MRT_20250220T102720.SAFE",
          "s2:datastrip_id": "S2B_OPER_MSI_L2A_DS_2BPS_20250220T102720_S20250220T082908_N05.11",
          "s2:product_type": "S2MSI2A",
          "sat:orbit_state": "descending",
          "s2:datatake_type": "INS-NOBS",
          "s2:generation_time": "2025-02-20T10:27:20.000000Z",
          "sat:relative_orbit": 78,
          "s2:water_percentage": 2.585396,
          "s2:mean_solar_zenith": 26.6875037320055,
          "s2:mean_solar_azimuth": 109.678779641183,
          "s2:processing_baseline": "05.11",
          "s2:snow_ice_percentage": 0.0,
          "s2:vegetation_percentage": 65.170109,
          "s2:thin_cirrus_percentage": 0.335951,
          "s2:cloud_shadow_percentage": 2.372384,
          "s2:nodata_pixel_percentage": 0.0,
          "s2:unclassified_percentage": 0.5788,
          "s2:not_vegetated_percentage": 26.244536,
          "s2:degraded_msi_data_percentage": 0.0196,
          "s2:high_proba_clouds_percentage": 1.049595,
          "s2:reflectance_conversion_factor": 1.02468364925269,
          "s2:medium_proba_clouds_percentage": 1.585977,
          "s2:saturated_defective_pixel_percentage": 0.0,
          "proj:code": "EPSG:32735"
        }
      }
    },
    {
      "type": "Feature",
      "id": "S2B_MSIL2A_20250220T080859_R078_T35MRU_20250220T102720",
      "geometry": {
        "type": "Polygon",
        "coordinates": [
          [
            [
              29.6951767,
              -0.9033618
            ],
            [
              30.6804936,
              -0.9024912
            ],
            [
              30.68204,
              -1.8938167
            ],
            [
              29.6963105,
              -1.895644
            ],
            [
              29.6951767,
              -0.9033618
            ]
          ]
        ]
      },
      "properties": {
        "id": "S2B_MSIL2A_20250220T080859_R078_T35MRU_20250220T102720",
        "collection": "sentinel-2-l2a",
        "datetime": "2025-02-20T08:08:59.024000Z",
        "cloud_cover": 3.05427,
        "assets": {
          "AOT": "https://sentinel2l2a01.blob.core.windows.net/sentinel2-l2/35/M/RU/2025/02/20/S2B_MSIL2A_20250220T080859_N0511_R078_T35MRU_20250220T102720.SAFE/GRANULE/L2A_T35MRU_A041574_20250220T082908/IMG_DATA/R10m/T35MRU_20250220T080859_AOT_10m.tif",
          "B01": "https://sentinel2l2a01.blob.core.windows.net/sentinel2-l2/35/M/RU/2025/02/20/S2B_MSIL2A_20250220T080859_N0511_R078_T35MRU_20250220T102720.SAFE/GRANULE/L2A_T35MRU_A041574_20250220T082908/IMG_DATA/R60m/T35MRU_20250220T080859_B01_60m.tif",
          "B02": "https://sentinel2l2a01.blob.core.windows.net/sentinel2-l2/35/M/RU/2025/02/20/S2B_MSIL2A_20250220T080859_N0511_R078_T35MRU_20250220T102720.SAFE/GRANULE/L2A_T35MRU_A041574_20250220T082908/IMG_DATA/R10m/T35MRU_20250220T080859_B02_10m.tif",
          "B03": "https://sentinel2l2a01.blob.core.windows.net/sentinel2-l2/35/M/RU/2025/02/20/S2B_MSIL2A_20250220T080859_N0511_R078_T35MRU_20250220T102720.SAFE/GRANULE/L2A_T35MRU_A041574_20250220T082908/IMG_DATA/R10m/T35MRU_20250220T080859_B03_10m.tif",
          "B04": "https://sentinel2l2a01.blob.core.windows.net/sentinel2-l2/35/M/RU/2025/02/20/S2B_MSIL2A_20250220T080859_N0511_R078_T35MRU_20250220T102720.SAFE/GRANULE/L2A_T35MRU_A041574_20250220T082908/IMG_DATA/R10m/T35MRU_20250220T080859_B04_10m.tif",
          "B05": "https://sentinel2l2a01.blob.core.windows.net/sentinel2-l2/35/M/RU/2025/02/20/S2B_MSIL2A_20250220T080859_N0511_R078_T35MRU_20250220T102720.SAFE/GRANULE/L2A_T35MRU_A041574_20250220T082908/IMG_DATA/R20m/T35MRU_20250220T080859_B05_20m.tif",
          "B06": "https://sentinel2l2a01.blob.core.windows.net/sentinel2-l2/35/M/RU/2025/02/20/S2B_MSIL2A_20250220T080859_N0511_R078_T35MRU_20250220T102720.SAFE/GRANULE/L2A_T35MRU_A041574_20250220T082908/IMG_DATA/R20m/T35MRU_20250220T080859_B06_20m.tif",
          "B07": "https://sentinel2l2a01.blob.core.windows.net/sentinel2-l2/35/M/RU/2025/02/20/S2B_MSIL2A_20250220T080859_N0511_R078_T35MRU_20250220T102720.SAFE/GRANULE/L2A_T35MRU_A041574_20250220T082908/IMG_DATA/R20m/T35MRU_20250220T080859_B07_20m.tif",
          "B08": "https://sentinel2l2a01.blob.core.windows.net/sentinel2-l2/35/M/RU/2025/02/20/S2B_MSIL2A_20250220T080859_N0511_R078_T35MRU_20250220T102720.SAFE/GRANULE/L2A_T35MRU_A041574_20250220T082908/IMG_DATA/R10m/T35MRU_20250220T080859_B08_10m.tif",
          "B09": "https://sentinel2l2a01.blob.core.windows.net/sentinel2-l2/35/M/RU/2025/02/20/S2B_MSIL2A_20250220T080859_N0511_R078_T35MRU_20250220T102720.SAFE/GRANULE/L2A_T35MRU_A041574_20250220T082908/IMG_DATA/R60m/T35MRU_20250220T080859_B09_60m.tif",
          "B11": "https://sentinel2l2a01.blob.core.windows.net/sentinel2-l2/35/M/RU/2025/02/20/S2B_MSIL2A_20250220T080859_N0511_R078_T35MRU_20250220T102720.SAFE/GRANULE/L2A_T35MRU_A041574_20250220T082908/IMG_DATA/R20m/T35MRU_20250220T080859_B11_20m.tif",
          "B12": "https://sentinel2l2a01.blob.core.windows.net/sentinel2-l2/35/M/RU/2025/02/20/S2B_MSIL2A_20250220T080859_N0511_R078_T35MRU_20250220T102720.SAFE/GRANULE/L2A_T35MRU_A041574_20250220T082908/IMG_DATA/R20m/T35MRU_20250220T080859_B12_20m.tif",
          "B8A": "https://sentinel2l2a01.blob.core.windows.net/sentinel2-l2/35/M/RU/2025/02/20/S2B_MSIL2A_20250220T080859_N0511_R078_T35MRU_20250220T102720.SAFE/GRANULE/L2A_T35MRU_A041574_20250220T082908/IMG_DATA/R20m/T35MRU_20250220T080859_B8A_20m.tif",
          "SCL": "https://sentinel2l2a01.blob.core.windows.net/sentinel2-l2/35/M/RU/2025/02/20/S2B_MSIL2A_20250220T080859_N0511_R078_T35MRU_20250220T102720.SAFE/GRANULE/L2A_T35MRU_A041574_20250220T082908/IMG_DATA/R20m/T35MRU_20250220T080859_SCL_20m.tif",
          "WVP": "https://sentinel2l2a01.blob.core.windows.net/sentinel2-l2/35/M/RU/2025/02/20/S2B_MSIL2A_20250220T080859_N0511_R078_T35MRU_20250220T102720.SAFE/GRANULE/L2A_T35MRU_A041574_20250220T082908/IMG_DATA/R10m/T35MRU_20250220T080859_WVP_10m.tif",
          "visual": "https://sentinel2l2a01.blob.core.windows.net/sentinel2-l2/35/M/RU/2025/02/20/S2B_MSIL2A_20250220T080859_N0511_R078_T35MRU_20250220T102720.SAFE/GRANULE/L2A_T35MRU_A041574_20250220T082908/IMG_DATA/R10m/T35MRU_20250220T080859_TCI_10m.tif",
          "safe-manifest": "https://sentinel2l2a01.blob.core.windows.net/sentinel2-l2/35/M/RU/2025/02/20/S2B_MSIL2A_20250220T080859_N0511_R078_T35MRU_20250220T102720.SAFE/manifest.safe",
          "granule-metadata": "https://sentinel2l2a01.blob.core.windows.net/sentinel2-l2/35/M/RU/2025/02/20/S2B_MSIL2A_20250220T080859_N0511_R078_T35MRU_20250220T102720.SAFE/GRANULE/L2A_T35MRU_A041574_20250220T082908/MTD_TL.xml",
          "inspire-metadata": "https://sentinel2l2a01.blob.core.windows.net/sentinel2-l2/35/M/RU/2025/02/20/S2B_MSIL2A_20250220T080859_N0511_R078_T35MRU_20250220T102720.SAFE/INSPIRE.xml",
          "product-metadata": "https://sentinel2l2a01.blob.core.windows.net/sentinel2-l2/35/M/RU/2025/02/20/S2B_MSIL2A_20250220T080859_N0511_R078_T35MRU_20250220T102720.SAFE/MTD_MSIL2A.xml",
          "datastrip-metadata": "https://sentinel2l2a01.blob.core.windows.net/sentinel2-l2/35/M/RU/2025/02/20/S2B_MSIL2A_20250220T080859_N0511_R078_T35MRU_20250220T102720.SAFE/DATASTRIP/DS_2BPS_20250220T102720_S20250220T082908/MTD_DS.xml",
          "tilejson": "https://planetarycomputer.microsoft.com/api/data/v1/item/tilejson.json?collection=sentinel-2-l2a&item=S2B_MSIL2A_20250220T080859_R078_T35MRU_20250220T102720&assets=visual&asset_bidx=visual%7C1%2C2%2C3&nodata=0&format=png",
          "rendered_preview": "https://planetarycomputer.microsoft.com/api/data/v1/item/preview.png?collection=sentinel-2-l2a&item=S2B_MSIL2A_20250220T080859_R078_T35MRU_20250220T102720&assets=visual&asset_bidx=visual%7C1%2C2%2C3&nodata=0&format=png"
        },
        "stac_properties": {
          "datetime": "2025-02-20T08:08:59.024000Z",
          "platform": "Sentinel-2B",
          "instruments": [
            "msi"
          ],
          "s2:mgrs_tile": "35MRU",
          "constellation": "Sentinel 2",
          "s2:granule_id": "S2B_OPER_MSI_L2A_TL_2BPS_20250220T102720_A041574_T35MRU_N05.11",
          "eo:cloud_cover": 3.05427,
          "s2:datatake_id": "GS2B_20250220T080859_041574_N05.11",
          "s2:product_uri": "S2B_MSIL2A_20250220T080859_N0511_R078_T35MRU_20250220T102720.SAFE",
          "s2:datastrip_id": "S2B_OPER_MSI_L2A_DS_2BPS_20250220T102720_S20250220T082908_N05.11",
          "s2:product_type": "S2MSI2A",
          "sat:orbit_state": "descending",
          "s2:datatake_type": "INS-NOBS",
          "s2:generation_time": "2025-02-20T10:27:20.000000Z",
          "sat:relative_orbit": 78,
          "s2:water_percentage": 1.606345,
          "s2:mean_solar_zenith": 27.0625643377233,
          "s2:mean_solar_azimuth": 111.307907806632,
          "s2:processing_baseline": "05.11",
          "s2:snow_ice_percentage": 0.0,
          "s2:vegetation_percentage": 68.238193,
          "s2:thin_cirrus_percentage": 0.001457,
          "s2:cloud_shadow_percentage": 2.574112,
          "s2:nodata_pixel_percentage": 0.0,
          "s2:unclassified_percentage": 0.353373,
          "s2:not_vegetated_percentage": 24.106997,
          "s2:degraded_msi_data_percentage": 0.0171,
          "s2:high_proba_clouds_percentage": 1.50386,
          "s2:reflectance_conversion_factor": 1.02468364925269,
          "s2:medium_proba_clouds_percentage": 1.548953,
          "s2:saturated_defective_pixel_percentage": 0.0,
          "proj:code": "EPSG:32735"
        }
      }
    },
    {
      "type": "Feature",
      "id": "S2A_MSIL2A_20250106T081321_R078_T35MRT_20250106T111649",
      "geometry": {
        "type": "Polygon",
        "coordinates": [
          [
            [
              29.6961769,
              -1.8072608
            ],
            [
              30.6818577,
              -1.8055187
            ],
            [
              30.684405,
              -2.796832
            ],
            [
              29.6980446,
              -2.7995317
            ],
            [
              29.6961769,
              -1.8072608
            ]
          ]
        ]
      },
      "properties": {
        "id": "S2A_MSIL2A_20250106T081321_R078_T35MRT_20250106T111649",
        "collection": "sentinel-2-l2a",
        "datetime": "2025-01-06T08:13:21.024000Z",
        "cloud_cover": 20.859618,
        "assets": {
          "AOT": "https://sentinel2l2a01.blob.core.windows.net/sentinel2-l2/35/M/RT/2025/01/06/S2A_MSIL2A_20250106T081321_N0511_R078_T35MRT_20250106T111649.SAFE/GRANULE/L2A_T35MRT_A049839_20250106T082550/IMG_DATA/R10m/T35MRT_20250106T081321_AOT_10m.tif",
          "B01": "https://sentinel2l2a01.blob.core.windows.net/sentinel2-l2/35/M/RT/2025/01/06/S2A_MSIL2A_20250106T081321_N0511_R078_T35MRT_20250106T111649.SAFE/GRANULE/L2A_T35MRT_A049839_20250106T082550/IMG_DATA/R60m/T35MRT_20250106T081321_B01_60m.tif",
          "B02": "https://sentinel2l2a01.blob.core.windows.net/sentinel2-l2/35/M/RT/2025/01/06/S2A_MSIL2A_20250106T081321_N0511_R078_T35MRT_20250106T111649.SAFE/GRANULE/L2A_T35MRT_A049839_20250106T082550/IMG_DATA/R10m/T35MRT_20250106T081321_B02_10m.tif",
          "B03": "https://sentinel2l2a01.blob.core.windows.net/sentinel2-l2/35/M/RT/2025/01/06/S2A_MSIL2A_20250106T081321_N0511_R078_T35MRT_20250106T111649.SAFE/GRANULE/L2A_T35MRT_A049839_20250106T082550/IMG_DATA/R10m/T35MRT_20250106T081321_B03_10m.tif",
          "B04": "https://sentinel2l2a01.blob.core.windows.net/sentinel2-l2/35/M/RT/2025/01/06/S2A_MSIL2A_20250106T081321_N0511_R078_T35MRT_20250106T111649.SAFE/GRANULE/L2A_T35MRT_A049839_20250106T082550/IMG_DATA/R10m/T35MRT_20250106T081321_B04_10m.tif",
          "B05": "https://sentinel2l2a01.blob.core.windows.net/sentinel2-l2/35/M/RT/2025/01/06/S2A_MSIL2A_20250106T081321_N0511_R078_T35MRT_20250106T111649.SAFE/GRANULE/L2A_T35MRT_A049839_20250106T082550/IMG_DATA/R20m/T35MRT_20250106T081321_B05_20m.tif",
          "B06": "https://sentinel2l2a01.blob.core.windows.net/sentinel2-l2/35/M/RT/2025/01/06/S2A_MSIL2A_20250106T081321_N0511_R078_T35MRT_20250106T111649.SAFE/GRANULE/L2A_T35MRT_A049839_20250106T082550/IMG_DATA/R20m/T35MRT_20250106T081321_B06_20m.tif",
          "B07": "https://sentinel2l2a01.blob.core.windows.net/sentinel2-l2/35/M/RT/2025/01/06/S2A_MSIL2A_20250106T081321_N0511_R078_T35MRT_20250106T111649.SAFE/GRANULE/L2A_T35MRT_A049839_20250106T082550/IMG_DATA/R20m/T35MRT_20250106T081321_B07_20m.tif",
          "B08": "https://sentinel2l2a01.blob.core.windows.net/sentinel2-l2/35/M/RT/2025/01/06/S2A_MSIL2A_20250106T081321_N0511_R078_T35MRT_20250106T111649.SAFE/GRANULE/L2A_T35MRT_A049839_20250106T082550/IMG_DATA/R10m/T35MRT_20250106T081321_B08_10m.tif",
          "B09": "https://sentinel2l2a01.blob.core.windows.net/sentinel2-l2/35/M/RT/2025/01/06/S2A_MSIL2A_20250106T081321_N0511_R078_T35MRT_20250106T111649.SAFE/GRANULE/L2A_T35MRT_A049839_20250106T082550/IMG_DATA/R60m/T35MRT_20250106T081321_B09_60m.tif",
          "B11": "https://sentinel2l2a01.blob.core.windows.net/sentinel2-l2/35/M/RT/2025/01/06/S2A_MSIL2A_20250106T081321_N0511_R078_T35MRT_20250106T111649.SAFE/GRANULE/L2A_T35MRT_A049839_20250106T082550/IMG_DATA/R20m/T35MRT_20250106T081321_B11_20m.tif",
          "B12": "https://sentinel2l2a01.blob.core.windows.net/sentinel2-l2/35/M/RT/2025/01/06/S2A_MSIL2A_20250106T081321_N0511_R078_T35MRT_20250106T111649.SAFE/GRANULE/L2A_T35MRT_A049839_20250106T082550/IMG_DATA/R20m/T35MRT_20250106T081321_B12_20m.tif",
          "B8A": "https://sentinel2l2a01.blob.core.windows.net/sentinel2-l2/35/M/RT/2025/01/06/S2A_MSIL2A_20250106T081321_N0511_R078_T35MRT_20250106T111649.SAFE/GRANULE/L2A_T35MRT_A049839_20250106T082550/IMG_DATA/R20m/T35MRT_20250106T081321_B8A_20m.tif",
          "SCL": "https://sentinel2l2a01.blob.core.windows.net/sentinel2-l2/35/M/RT/2025/01/06/S2A_MSIL2A_20250106T081321_N0511_R078_T35MRT_20250106T111649.SAFE/GRANULE/L2A_T35MRT_A049839_20250106T082550/IMG_DATA/R20m/T35MRT_20250106T081321_SCL_20m.tif",
          "WVP": "https://sentinel2l2a01.blob.core.windows.net/sentinel2-l2/35/M/RT/2025/01/06/S2A_MSIL2A_20250106T081321_N0511_R078_T35MRT_20250106T111649.SAFE/GRANULE/L2A_T35MRT_A049839_20250106T082550/IMG_DATA/R10m/T35MRT_20250106T081321_WVP_10m.tif",
          "visual": "https://sentinel2l2a01.blob.core.windows.net/sentinel2-l2/35/M/RT/2025/01/06/S2A_MSIL2A_20250106T081321_N0511_R078_T35MRT_20250106T111649.SAFE/GRANULE/L2A_T35MRT_A049839_20250106T082550/IMG_DATA/R10m/T35MRT_20250106T081321_TCI_10m.tif",
          "safe-manifest": "https://sentinel2l2a01.blob.core.windows.net/sentinel2-l2/35/M/RT/2025/01/06/S2A_MSIL2A_20250106T081321_N0511_R078_T35MRT_20250106T111649.SAFE/manifest.safe",
          "granule-metadata": "https://sentinel2l2a01.blob.core.windows.net/sentinel2-l2/35/M/RT/2025/01/06/S2A_MSIL2A_20250106T081321_N0511_R078_T35MRT_20250106T111649.SAFE/GRANULE/L2A_T35MRT_A049839_20250106T082550/MTD_TL.xml",
          "inspire-metadata": "https://sentinel2l2a01.blob.core.windows.net/sentinel2-l2/35/M/RT/2025/01/06/S2A_MSIL2A_20250106T081321_N0511_R078_T35MRT_20250106T111649.SAFE/INSPIRE.xml",
          "product-metadata": "https://sentinel2l2a01.blob.core.windows.net/sentinel2-l2/35/M/RT/2025/01/06/S2A_MSIL2A_20250106T081321_N0511_R078_T35MRT_20250106T111649.SAFE/MTD_MSIL2A.xml",
          "datastrip-metadata": "https://sentinel2l2a01.blob.core.windows.net/sentinel2-l2/35/M/RT/2025/01/06/S2A_MSIL2A_20250106T081321_N0511_R078_T35MRT_20250106T111649.SAFE/DATASTRIP/DS_2APS_20250106T111649_S20250106T082550/MTD_DS.xml",
          "tilejson": "https://planetarycomputer.microsoft.com/api/data/v1/item/tilejson.json?collection=sentinel-2-l2a&item=S2A_MSIL2A_20250106T081321_R078_T35MRT_20250106T111649&assets=visual&asset_bidx=visual%7C1%2C2%2C3&nodata=0&format=png",
          "rendered_preview": "https://planetarycomputer.microsoft.com/api/data/v1/item/preview.png?collection=sentinel-2-l2a&item=S2A_MSIL2A_20250106T081321_R078_T35MRT_20250106T111649&assets=visual&asset_bidx=visual%7C1%2C2%2C3&nodata=0&format=png"
        },
        "stac_properties": {
          "datetime": "2025-01-06T08:13:21.024000Z",
          "platform": "Sentinel-2A",
          "instruments": [
            "msi"
          ],
          "s2:mgrs_tile": "35MRT",
          "constellation": "Sentinel 2",
          "s2:granule_id": "S2A_OPER_MSI_L2A_TL_2APS_20250106T111649_A049839_T35MRT_N05.11",
          "eo:cloud_cover": 20.859618,
          "s2:datatake_id": "GS2A_20250106T081321_049839_N05.11",
          "s2:product_uri": "S2A_MSIL2A_20250106T081321_N0511_R078_T35MRT_20250106T111649.SAFE",
          "s2:datastrip_id": "S2A_OPER_MSI_L2A_DS_2APS_20250106T111649_S20250106T082550_N05.11",
          "s2:product_type": "S2MSI2A",
          "sat:orbit_state": "descending",
          "s2:datatake_type": "INS-NOBS",
          "s2:generation_time": "2025-01-06T11:16:49.000000Z",
          "sat:relative_orbit": 78,
          "s2:water_percentage": 2.535211,
          "s2:mean_solar_zenith": 30.4940996454343,
          "s2:mean_solar_azimuth": 133.218428196197,
          "s2:processing_baseline": "05.11",
          "s2:snow_ice_percentage": 0.0,
          "s2:vegetation_percentage": 56.959254,
          "s2:thin_cirrus_percentage": 3e-05,
          "s2:cloud_shadow_percentage": 12.060966,
          "s2:nodata_pixel_percentage": 0.0,
          "s2:unclassified_percentage": 0.572971,
          "s2:not_vegetated_percentage": 6.951424,
          "s2:degraded_msi_data_percentage": 0.0508,
          "s2:high_proba_clouds_percentage": 10.939685,
          "s2:reflectance_conversion_factor": 1.03431574009257,
          "s2:medium_proba_clouds_percentage": 9.919904,
          "s2:saturated_defective_pixel_percentage": 0.0,
          "proj:code": "EPSG:32735"
        }
      }
    },
    {
      "type": "Feature",
      "id": "S2A_MSIL2A_20250106T081321_R078_T35MRU_20250106T111649",
      "geometry": {
        "type": "Polygon",
        "coordinates": [
          [
            [
              29.6951767,
              -0.9033618
            ],
            [
              30.6804936,
              -0.9024912
            ],
            [
              30.68204,
              -1.8938167
            ],
            [
              29.6963105,
              -1.895644
            ],
            [
              29.6951767,
              -0.9033618
            ]
          ]
        ]
      },
      "properties": {
        "id": "S2A_MSIL2A_20250106T081321_R078_T35MRU_20250106T111649",
        "collection": "sentinel-2-l2a",
        "datetime": "2025-01-06T08:13:21.024000Z",
        "cloud_cover": 13.153791,
        "assets": {
          "AOT": "https://sentinel2l2a01.blob.core.windows.net/sentinel2-l2/35/M/RU/2025/01/06/S2A_MSIL2A_20250106T081321_N0511_R078_T35MRU_20250106T111649.SAFE/GRANULE/L2A_T35MRU_A049839_20250106T082550/IMG_DATA/R10m/T35MRU_20250106T081321_AOT_10m.tif",
          "B01": "https://sentinel2l2a01.blob.core.windows.net/sentinel2-l2/35/M/RU/2025/01/06/S2A_MSIL2A_20250106T081321_N0511_R078_T35MRU_20250106T111649.SAFE/GRANULE/L2A_T35MRU_A049839_20250106T082550/IMG_DATA/R60m/T35MRU_20250106T081321_B01_60m.tif",
          "B02": "https://sentinel2l2a01.blob.core.windows.net/sentinel2-l2/35/M/RU/2025/01/06/S2A_MSIL2A_20250106T081321_N0511_R078_T35MRU_20250106T111649.SAFE/GRANULE/L2A_T35MRU_A049839_20250106T082550/IMG_DATA/R10m/T35MRU_20250106T081321_B02_10m.tif",
          "B03": "https://sentinel2l2a01.blob.core.windows.net/sentinel2-l2/35/M/RU/2025/01/06/S2A_MSIL2A_20250106T081321_N0511_R078_T35MRU_20250106T111649.SAFE/GRANULE/L2A_T35MRU_A049839_20250106T082550/IMG_DATA/R10m/T35MRU_20250106T081321_B03_10m.tif",
          "B04": "https://sentinel2l2a01.blob.core.windows.net/sentinel2-l2/35/M/RU/2025/01/06/S2A_MSIL2A_20250106T081321_N0511_R078_T35MRU_20250106T111649.SAFE/GRANULE/L2A_T35MRU_A049839_20250106T082550/IMG_DATA/R10m/T35MRU_20250106T081321_B04_10m.tif",
          "B05": "https://sentinel2l2a01.blob.core.windows.net/sentinel2-l2/35/M/RU/2025/01/06/S2A_MSIL2A_20250106T081321_N0511_R078_T35MRU_20250106T111649.SAFE/GRANULE/L2A_T35MRU_A049839_20250106T082550/IMG_DATA/R20m/T35MRU_20250106T081321_B05_20m.tif",
          "B06": "https://sentinel2l2a01.blob.core.windows.net/sentinel2-l2/35/M/RU/2025/01/06/S2A_MSIL2A_20250106T081321_N0511_R078_T35MRU_20250106T111649.SAFE/GRANULE/L2A_T35MRU_A049839_20250106T082550/IMG_DATA/R20m/T35MRU_20250106T081321_B06_20m.tif",
          "B07": "https://sentinel2l2a01.blob.core.windows.net/sentinel2-l2/35/M/RU/2025/01/06/S2A_MSIL2A_20250106T081321_N0511_R078_T35MRU_20250106T111649.SAFE/GRANULE/L2A_T35MRU_A049839_20250106T082550/IMG_DATA/R20m/T35MRU_20250106T081321_B07_20m.tif",
          "B08": "https://sentinel2l2a01.blob.core.windows.net/sentinel2-l2/35/M/RU/2025/01/06/S2A_MSIL2A_20250106T081321_N0511_R078_T35MRU_20250106T111649.SAFE/GRANULE/L2A_T35MRU_A049839_20250106T082550/IMG_DATA/R10m/T35MRU_20250106T081321_B08_10m.tif",
          "B09": "https://sentinel2l2a01.blob.core.windows.net/sentinel2-l2/35/M/RU/2025/01/06/S2A_MSIL2A_20250106T081321_N0511_R078_T35MRU_20250106T111649.SAFE/GRANULE/L2A_T35MRU_A049839_20250106T082550/IMG_DATA/R60m/T35MRU_20250106T081321_B09_60m.tif",
          "B11": "https://sentinel2l2a01.blob.core.windows.net/sentinel2-l2/35/M/RU/2025/01/06/S2A_MSIL2A_20250106T081321_N0511_R078_T35MRU_20250106T111649.SAFE/GRANULE/L2A_T35MRU_A049839_20250106T082550/IMG_DATA/R20m/T35MRU_20250106T081321_B11_20m.tif",
          "B12": "https://sentinel2l2a01.blob.core.windows.net/sentinel2-l2/35/M/RU/2025/01/06/S2A_MSIL2A_20250106T081321_N0511_R078_T35MRU_20250106T111649.SAFE/GRANULE/L2A_T35MRU_A049839_20250106T082550/IMG_DATA/R20m/T35MRU_20250106T081321_B12_20m.tif",
          "B8A": "https://sentinel2l2a01.blob.core.windows.net/sentinel2-l2/35/M/RU/2025/01/06/S2A_MSIL2A_20250106T081321_N0511_R078_T35MRU_20250106T111649.SAFE/GRANULE/L2A_T35MRU_A049839_20250106T082550/IMG_DATA/R20m/T35MRU_20250106T081321_B8A_20m.tif",
          "SCL": "https://sentinel2l2a01.blob.core.windows.net/sentinel2-l2/35/M/RU/2025/01/06/S2A_MSIL2A_20250106T081321_N0511_R078_T35MRU_20250106T111649.SAFE/GRANULE/L2A_T35MRU_A049839_20250106T082550/IMG_DATA/R20m/T35MRU_20250106T081321_SCL_20m.tif",
          "WVP": "https://sentinel2l2a01.blob.core.windows.net/sentinel2-l2/35/M/RU/2025/01/06/S2A_MSIL2A_20250106T081321_N0511_R078_T35MRU_20250106T111649.SAFE/GRANULE/L2A_T35MRU_A049839_20250106T082550/IMG_DATA/R10m/T35MRU_20250106T081321_WVP_10m.tif",
          "visual": "https://sentinel2l2a01.blob.core.windows.net/sentinel2-l2/35/M/RU/2025/01/06/S2A_MSIL2A_20250106T081321_N0511_R078_T35MRU_20250106T111649.SAFE/GRANULE/L2A_T35MRU_A049839_20250106T082550/IMG_DATA/R10m/T35MRU_20250106T081321_TCI_10m.tif",
          "safe-manifest": "https://sentinel2l2a01.blob.core.windows.net/sentinel2-l2/35/M/RU/2025/01/06/S2A_MSIL2A_20250106T081321_N0511_R078_T35MRU_20250106T111649.SAFE/manifest.safe",
          "granule-metadata": "https://sentinel2l2a01.blob.core.windows.net/sentinel2-l2/35/M/RU/2025/01/06/S2A_MSIL2A_20250106T081321_N0511_R078_T35MRU_20250106T111649.SAFE/GRANULE/L2A_T35MRU_A049839_20250106T082550/MTD_TL.xml",
          "inspire-metadata": "https://sentinel2l2a01.blob.core.windows.net/sentinel2-l2/35/M/RU/2025/01/06/S2A_MSIL2A_20250106T081321_N0511_R078_T35MRU_20250106T111649.SAFE/INSPIRE.xml",
          "product-metadata": "https://sentinel2l2a01.blob.core.windows.net/sentinel2-l2/35/M/RU/2025/01/06/S2A_MSIL2A_20250106T081321_N0511_R078_T35MRU_20250106T111649.SAFE/MTD_MSIL2A.xml",
          "datastrip-metadata": "https://sentinel2l2a01.blob.core.windows.net/sentinel2-l2/35/M/RU/2025/01/06/S2A_MSIL2A_20250106T081321_N0511_R078_T35MRU_20250106T111649.SAFE/DATASTRIP/DS_2APS_20250106T111649_S20250106T082550/MTD_DS.xml",
          "tilejson": "https://planetarycomputer.microsoft.com/api/data/v1/item/tilejson.json?collection=sentinel-2-l2a&item=S2A_MSIL2A_20250106T081321_R078_T35MRU_20250106T111649&assets=visual&asset_bidx=visual%7C1%2C2%2C3&nodata=0&format=png",
          "rendered_preview": "https://planetarycomputer.microsoft.com/api/data/v1/item/preview.png?collection=sentinel-2-l2a&item=S2A_MSIL2A_20250106T081321_R078_T35MRU_20250106T111649&assets=visual&asset_bidx=visual%7C1%2C2%2C3&nodata=0&format=png"
        },
        "stac_properties": {
          "datetime": "2025-01-06T08:13:21.024000Z",
          "platform": "Sentinel-2A",
          "instruments": [
            "msi"
          ],
          "s2:mgrs_tile": "35MRU",
          "constellation": "Sentinel 2",
          "s2:granule_id": "S2A_OPER_MSI_L2A_TL_2APS_20250106T111649_A049839_T35MRU_N05.11",
          "eo:cloud_cover": 13.153791,
          "s2:datatake_id": "GS2A_20250106T081321_049839_N05.11",
          "s2:product_uri": "S2A_MSIL2A_20250106T081321_N0511_R078_T35MRU_20250106T111649.SAFE",
          "s2:datastrip_id": "S2A_OPER_MSI_L2A_DS_2APS_20250106T111649_S20250106T082550_N05.11",
          "s2:product_type": "S2MSI2A",
          "sat:orbit_state": "descending",
          "s2:datatake_type": "INS-NOBS",
          "s2:generation_time": "2025-01-06T11:16:49.000000Z",
          "sat:relative_orbit": 78,
          "s2:water_percentage": 1.338247,
          "s2:mean_solar_zenith": 31.1639352839222,
          "s2:mean_solar_azimuth": 134.242037023436,
          "s2:processing_baseline": "05.11",
          "s2:snow_ice_percentage": 0.0,
          "s2:vegetation_percentage": 71.795011,
          "s2:thin_cirrus_percentage": 2.7e-05,
          "s2:cloud_shadow_percentage": 9.414882,
          "s2:nodata_pixel_percentage": 0.0,
          "s2:unclassified_percentage": 0.385735,
          "s2:not_vegetated_percentage": 3.860976,
          "s2:degraded_msi_data_percentage": 0.0494,
          "s2:high_proba_clouds_percentage": 7.038626,
          "s2:reflectance_conversion_factor": 1.03431574009257,
          "s2:medium_proba_clouds_percentage": 6.115139,
          "s2:saturated_defective_pixel_percentage": 0.0,
          "proj:code": "EPSG:32735"
        }
      }
    },
    {
      "type": "Feature",
      "id": "S2B_MSIL2A_20250421T080609_R078_T35MRT_20250421T110048",
      "geometry": {
        "type": "Polygon",
        "coordinates": [
          [
            [
              29.6961769,
              -1.8072608
            ],
            [
              30.6818577,
              -1.8055187
            ],
            [
              30.684405,
              -2.796832
            ],
            [
              29.6980446,
              -2.7995317
            ],
            [
              29.6961769,
              -1.8072608
            ]
          ]
        ]
      },
      "properties": {
        "id": "S2B_MSIL2A_20250421T080609_R078_T35MRT_20250421T110048",
        "collection": "sentinel-2-l2a",
        "datetime": "2025-04-21T08:06:09.024000Z",
        "cloud_cover": 24.155863,
        "assets": {
          "AOT": "https://sentinel2l2a01.blob.core.windows.net/sentinel2-l2/35/M/RT/2025/04/21/S2B_MSIL2A_20250421T080609_N0511_R078_T35MRT_20250421T110048.SAFE/GRANULE/L2A_T35MRT_A042432_20250421T082956/IMG_DATA/R10m/T35MRT_20250421T080609_AOT_10m.tif",
          "B01": "https://sentinel2l2a01.blob.core.windows.net/sentinel2-l2/35/M/RT/2025/04/21/S2B_MSIL2A_20250421T080609_N0511_R078_T35MRT_20250421T110048.SAFE/GRANULE/L2A_T35MRT_A042432_20250421T082956/IMG_DATA/R60m/T35MRT_20250421T080609_B01_60m.tif",
          "B02": "https://sentinel2l2a01.blob.core.windows.net/sentinel2-l2/35/M/RT/2025/04/21/S2B_MSIL2A_20250421T080609_N0511_R078_T35MRT_20250421T110048.SAFE/GRANULE/L2A_T35MRT_A042432_20250421T082956/IMG_DATA/R10m/T35MRT_20250421T080609_B02_10m.tif",
          "B03": "https://sentinel2l2a01.blob.core.windows.net/sentinel2-l2/35/M/RT/2025/04/21/S2B_MSIL2A_20250421T080609_N0511_R078_T35MRT_20250421T110048.SAFE/GRANULE/L2A_T35MRT_A042432_20250421T082956/IMG_DATA/R10m/T35MRT_20250421T080609_B03_10m.tif",
          "B04": "https://sentinel2l2a01.blob.core.windows.net/sentinel2-l2/35/M/RT/2025/04/21/S2B_MSIL2A_20250421T080609_N0511_R078_T35MRT_20250421T110048.SAFE/GRANULE/L2A_T35MRT_A042432_20250421T082956/IMG_DATA/R10m/T35MRT_20250421T080609_B04_10m.tif",
          "B05": "https://sentinel2l2a01.blob.core.windows.net/sentinel2-l2/35/M/RT/2025/04/21/S2B_MSIL2A_20250421T080609_N0511_R078_T35MRT_20250421T110048.SAFE/GRANULE/L2A_T35MRT_A042432_20250421T082956/IMG_DATA/R20m/T35MRT_20250421T080609_B05_20m.tif",
          "B06": "https://sentinel2l2a01.blob.core.windows.net/sentinel2-l2/35/M/RT/2025/04/21/S2B_MSIL2A_20250421T080609_N0511_R078_T35MRT_20250421T110048.SAFE/GRANULE/L2A_T35MRT_A042432_20250421T082956/IMG_DATA/R20m/T35MRT_20250421T080609_B06_20m.tif",
          "B07": "https://sentinel2l2a01.blob.core.windows.net/sentinel2-l2/35/M/RT/2025/04/21/S2B_MSIL2A_20250421T080609_N0511_R078_T35MRT_20250421T110048.SAFE/GRANULE/L2A_T35MRT_A042432_20250421T082956/IMG_DATA/R20m/T35MRT_20250421T080609_B07_20m.tif",
          "B08": "https://sentinel2l2a01.blob.core.windows.net/sentinel2-l2/35/M/RT/2025/04/21/S2B_MSIL2A_20250421T080609_N0511_R078_T35MRT_20250421T110048.SAFE/GRANULE/L2A_T35MRT_A042432_20250421T082956/IMG_DATA/R10m/T35MRT_20250421T080609_B08_10m.tif",
          "B09": "https://sentinel2l2a01.blob.core.windows.net/sentinel2-l2/35/M/RT/2025/04/21/S2B_MSIL2A_20250421T080609_N0511_R078_T35MRT_20250421T110048.SAFE/GRANULE/L2A_T35MRT_A042432_20250421T082956/IMG_DATA/R60m/T35MRT_20250421T080609_B09_60m.tif",
          "B11": "https://sentinel2l2a01.blob.core.windows.net/sentinel2-l2/35/M/RT/2025/04/21/S2B_MSIL2A_20250421T080609_N0511_R078_T35MRT_20250421T110048.SAFE/GRANULE/L2A_T35MRT_A042432_20250421T082956/IMG_DATA/R20m/T35MRT_20250421T080609_B11_20m.tif",
          "B12": "https://sentinel2l2a01.blob.core.windows.net/sentinel2-l2/35/M/RT/2025/04/21/S2B_MSIL2A_20250421T080609_N0511_R078_T35MRT_20250421T110048.SAFE/GRANULE/L2A_T35MRT_A042432_20250421T082956/IMG_DATA/R20m/T35MRT_20250421T080609_B12_20m.tif",
          "B8A": "https://sentinel2l2a01.blob.core.windows.net/sentinel2-l2/35/M/RT/2025/04/21/S2B_MSIL2A_20250421T080609_N0511_R078_T35MRT_20250421T110048.SAFE/GRANULE/L2A_T35MRT_A042432_20250421T082956/IMG_DATA/R20m/T35MRT_20250421T080609_B8A_20m.tif",
          "SCL": "https://sentinel2l2a01.blob.core.windows.net/sentinel2-l2/35/M/RT/2025/04/21/S2B_MSIL2A_20250421T080609_N0511_R078_T35MRT_20250421T110048.SAFE/GRANULE/L2A_T35MRT_A042432_20250421T082956/IMG_DATA/R20m/T35MRT_20250421T080609_SCL_20m.tif",
          "WVP": "https://sentinel2l2a01.blob.core.windows.net/sentinel2-l2/35/M/RT/2025/04/21/S2B_MSIL2A_20250421T080609_N0511_R078_T35MRT_20250421T110048.SAFE/GRANULE/L2A_T35MRT_A042432_20250421T082956/IMG_DATA/R10m/T35MRT_20250421T080609_WVP_10m.tif",
          "visual": "https://sentinel2l2a01.blob.core.windows.net/sentinel2-l2/35/M/RT/2025/04/21/S2B_MSIL2A_20250421T080609_N0511_R078_T35MRT_20250421T110048.SAFE/GRANULE/L2A_T35MRT_A042432_20250421T082956/IMG_DATA/R10m/T35MRT_20250421T080609_TCI_10m.tif",
          "safe-manifest": "https://sentinel2l2a01.blob.core.windows.net/sentinel2-l2/35/M/RT/2025/04/21/S2B_MSIL2A_20250421T080609_N0511_R078_T35MRT_20250421T110048.SAFE/manifest.safe",
          "granule-metadata": "https://sentinel2l2a01.blob.core.windows.net/sentinel2-l2/35/M/RT/2025/04/21/S2B_MSIL2A_20250421T080609_N0511_R078_T35MRT_20250421T110048.SAFE/GRANULE/L2A_T35MRT_A042432_20250421T082956/MTD_TL.xml",
          "inspire-metadata": "https://sentinel2l2a01.blob.core.windows.net/sentinel2-l2/35/M/RT/2025/04/21/S2B_MSIL2A_20250421T080609_N0511_R078_T35MRT_20250421T110048.SAFE/INSPIRE.xml",
          "product-metadata": "https://sentinel2l2a01.blob.core.windows.net/sentinel2-l2/35/M/RT/2025/04/21/S2B_MSIL2A_20250421T080609_N0511_R078_T35MRT_20250421T110048.SAFE/MTD_MSIL2A.xml",
          "datastrip-metadata": "https://sentinel2l2a01.blob.core.windows.net/sentinel2-l2/35/M/RT/2025/04/21/S2B_MSIL2A_20250421T080609_N0511_R078_T35MRT_20250421T110048.SAFE/DATASTRIP/DS_2BPS_20250421T110048_S20250421T082956/MTD_DS.xml",
          "tilejson": "https://planetarycomputer.microsoft.com/api/data/v1/item/tilejson.json?collection=sentinel-2-l2a&item=S2B_MSIL2A_20250421T080609_R078_T35MRT_20250421T110048&assets=visual&asset_bidx=visual%7C1%2C2%2C3&nodata=0&format=png",
          "rendered_preview": "https://planetarycomputer.microsoft.com/api/data/v1/item/preview.png?collection=sentinel-2-l2a&item=S2B_MSIL2A_20250421T080609_R078_T35MRT_20250421T110048&assets=visual&asset_bidx=visual%7C1%2C2%2C3&nodata=0&format=png"
        },
        "stac_properties": {
          "datetime": "2025-04-21T08:06:09.024000Z",
          "platform": "Sentinel-2B",
          "instruments": [
            "msi"
          ],
          "s2:mgrs_tile": "35MRT",
          "constellation": "Sentinel 2",
          "s2:granule_id": "S2B_OPER_MSI_L2A_TL_2BPS_20250421T110048_A042432_T35MRT_N05.11",
          "eo:cloud_cover": 24.155863,
          "s2:datatake_id": "GS2B_20250421T080609_042432_N05.11",
          "s2:product_uri": "S2B_MSIL2A_20250421T080609_N0511_R078_T35MRT_20250421T110048.SAFE",
          "s2:datastrip_id": "S2B_OPER_MSI_L2A_DS_2BPS_20250421T110048_S20250421T082956_N05.11",
          "s2:product_type": "S2MSI2A",
          "sat:orbit_state": "descending",
          "s2:datatake_type": "INS-NOBS",
          "s2:generation_time": "2025-04-21T11:00:48.000000Z",
          "sat:relative_orbit": 78,
          "s2:water_percentage": 2.553625,
          "s2:mean_solar_zenith": 25.9232031460463,
          "s2:mean_solar_azimuth": 56.0475212113171,
          "s2:processing_baseline": "05.11",
          "s2:snow_ice_percentage": 0.0,
          "s2:vegetation_percentage": 54.643619,
          "s2:thin_cirrus_percentage": 0.0,
          "s2:cloud_shadow_percentage": 14.492016,
          "s2:nodata_pixel_percentage": 0.0,
          "s2:unclassified_percentage": 0.284249,
          "s2:not_vegetated_percentage": 3.842197,
          "s2:degraded_msi_data_percentage": 0.0211,
          "s2:high_proba_clouds_percentage": 11.56249,
          "s2:reflectance_conversion_factor": 0.992676079552018,
          "s2:medium_proba_clouds_percentage": 12.593372,
          "s2:saturated_defective_pixel_percentage": 0.0,
          "proj:code": "EPSG:32735"
        }
      }
    },
    {
      "type": "Feature",
      "id": "S2B_MSIL2A_20250421T080609_R078_T35MRU_20250421T110048",
      "geometry": {
        "type": "Polygon",
        "coordinates": [
          [
            [
              29.6951767,
              -0.9033618
            ],
            [
              30.6804936,
              -0.9024912
            ],
            [
              30.68204,
              -1.8938167
            ],
            [
              29.6963105,
              -1.895644
            ],
            [
              29.6951767,
              -0.9033618
            ]
          ]
        ]
      },
      "properties": {
        "id": "S2B_MSIL2A_20250421T080609_R078_T35MRU_20250421T110048",
        "collection": "sentinel-2-l2a",
        "datetime": "2025-04-21T08:06:09.024000Z",
        "cloud_cover": 11.500805,
        "assets": {
          "AOT": "https://sentinel2l2a01.blob.core.windows.net/sentinel2-l2/35/M/RU/2025/04/21/S2B_MSIL2A_20250421T080609_N0511_R078_T35MRU_20250421T110048.SAFE/GRANULE/L2A_T35MRU_A042432_20250421T082956/IMG_DATA/R10m/T35MRU_20250421T080609_AOT_10m.tif",
          "B01": "https://sentinel2l2a01.blob.core.windows.net/sentinel2-l2/35/M/RU/2025/04/21/S2B_MSIL2A_20250421T080609_N0511_R078_T35MRU_20250421T110048.SAFE/GRANULE/L2A_T35MRU_A042432_20250421T082956/IMG_DATA/R60m/T35MRU_20250421T080609_B01_60m.tif",
          "B02": "https://sentinel2l2a01.blob.core.windows.net/sentinel2-l2/35/M/RU/2025/04/21/S2B_MSIL2A_20250421T080609_N0511_R078_T35MRU_20250421T110048.SAFE/GRANULE/L2A_T35MRU_A042432_20250421T082956/IMG_DATA/R10m/T35MRU_20250421T080609_B02_10m.tif",
          "B03": "https://sentinel2l2a01.blob.core.windows.net/sentinel2-l2/35/M/RU/2025/04/21/S2B_MSIL2A_20250421T080609_N0511_R078_T35MRU_20250421T110048.SAFE/GRANULE/L2A_T35MRU_A042432_20250421T082956/IMG_DATA/R10m/T35MRU_20250421T080609_B03_10m.tif",
          "B04": "https://sentinel2l2a01.blob.core.windows.net/sentinel2-l2/35/M/RU/2025/04/21/S2B_MSIL2A_20250421T080609_N0511_R078_T35MRU_20250421T110048.SAFE/GRANULE/L2A_T35MRU_A042432_20250421T082956/IMG_DATA/R10m/T35MRU_20250421T080609_B04_10m.tif",
          "B05": "https://sentinel2l2a01.blob.core.windows.net/sentinel2-l2/35/M/RU/2025/04/21/S2B_MSIL2A_20250421T080609_N0511_R078_T35MRU_20250421T110048.SAFE/GRANULE/L2A_T35MRU_A042432_20250421T082956/IMG_DATA/R20m/T35MRU_20250421T080609_B05_20m.tif",
          "B06": "https://sentinel2l2a01.blob.core.windows.net/sentinel2-l2/35/M/RU/2025/04/21/S2B_MSIL2A_20250421T080609_N0511_R078_T35MRU_20250421T110048.SAFE/GRANULE/L2A_T35MRU_A042432_20250421T082956/IMG_DATA/R20m/T35MRU_20250421T080609_B06_20m.tif",
          "B07": "https://sentinel2l2a01.blob.core.windows.net/sentinel2-l2/35/M/RU/2025/04/21/S2B_MSIL2A_20250421T080609_N0511_R078_T35MRU_20250421T110048.SAFE/GRANULE/L2A_T35MRU_A042432_20250421T082956/IMG_DATA/R20m/T35MRU_20250421T080609_B07_20m.tif",
          "B08": "https://sentinel2l2a01.blob.core.windows.net/sentinel2-l2/35/M/RU/2025/04/21/S2B_MSIL2A_20250421T080609_N0511_R078_T35MRU_20250421T110048.SAFE/GRANULE/L2A_T35MRU_A042432_20250421T082956/IMG_DATA/R10m/T35MRU_20250421T080609_B08_10m.tif",
          "B09": "https://sentinel2l2a01.blob.core.windows.net/sentinel2-l2/35/M/RU/2025/04/21/S2B_MSIL2A_20250421T080609_N0511_R078_T35MRU_20250421T110048.SAFE/GRANULE/L2A_T35MRU_A042432_20250421T082956/IMG_DATA/R60m/T35MRU_20250421T080609_B09_60m.tif",
          "B11": "https://sentinel2l2a01.blob.core.windows.net/sentinel2-l2/35/M/RU/2025/04/21/S2B_MSIL2A_20250421T080609_N0511_R078_T35MRU_20250421T110048.SAFE/GRANULE/L2A_T35MRU_A042432_20250421T082956/IMG_DATA/R20m/T35MRU_20250421T080609_B11_20m.tif",
          "B12": "https://sentinel2l2a01.blob.core.windows.net/sentinel2-l2/35/M/RU/2025/04/21/S2B_MSIL2A_20250421T080609_N0511_R078_T35MRU_20250421T110048.SAFE/GRANULE/L2A_T35MRU_A042432_20250421T082956/IMG_DATA/R20m/T35MRU_20250421T080609_B12_20m.tif",
          "B8A": "https://sentinel2l2a01.blob.core.windows.net/sentinel2-l2/35/M/RU/2025/04/21/S2B_MSIL2A_20250421T080609_N0511_R078_T35MRU_20250421T110048.SAFE/GRANULE/L2A_T35MRU_A042432_20250421T082956/IMG_DATA/R20m/T35MRU_20250421T080609_B8A_20m.tif",
          "SCL": "https://sentinel2l2a01.blob.core.windows.net/sentinel2-l2/35/M/RU/2025/04/21/S2B_MSIL2A_20250421T080609_N0511_R078_T35MRU_20250421T110048.SAFE/GRANULE/L2A_T35MRU_A042432_20250421T082956/IMG_DATA/R20m/T35MRU_20250421T080609_SCL_20m.tif",
          "WVP": "https://sentinel2l2a01.blob.core.windows.net/sentinel2-l2/35/M/RU/2025/04/21/S2B_MSIL2A_20250421T080609_N0511_R078_T35MRU_20250421T110048.SAFE/GRANULE/L2A_T35MRU_A042432_20250421T082956/IMG_DATA/R10m/T35MRU_20250421T080609_WVP_10m.tif",
          "visual": "https://sentinel2l2a01.blob.core.windows.net/sentinel2-l2/35/M/RU/2025/04/21/S2B_MSIL2A_20250421T080609_N0511_R078_T35MRU_20250421T110048.SAFE/GRANULE/L2A_T35MRU_A042432_20250421T082956/IMG_DATA/R10m/T35MRU_20250421T080609_TCI_10m.tif",
          "safe-manifest": "https://sentinel2l2a01.blob.core.windows.net/sentinel2-l2/35/M/RU/2025/04/21/S2B_MSIL2A_20250421T080609_N0511_R078_T35MRU_20250421T110048.SAFE/manifest.safe",
          "granule-metadata": "https://sentinel2l2a01.blob.core.windows.net/sentinel2-l2/35/M/RU/2025/04/21/S2B_MSIL2A_20250421T080609_N0511_R078_T35MRU_20250421T110048.SAFE/GRANULE/L2A_T35MRU_A042432_20250421T082956/MTD_TL.xml",
          "inspire-metadata": "https://sentinel2l2a01.blob.core.windows.net/sentinel2-l2/35/M/RU/2025/04/21/S2B_MSIL2A_20250421T080609_N0511_R078_T35MRU_20250421T110048.SAFE/INSPIRE.xml",
          "product-metadata": "https://sentinel2l2a01.blob.core.windows.net/sentinel2-l2/35/M/RU/2025/04/21/S2B_MSIL2A_20250421T080609_N0511_R078_T35MRU_20250421T110048.SAFE/MTD_MSIL2A.xml",
          "datastrip-metadata": "https://sentinel2l2a01.blob.core.windows.net/sentinel2-l2/35/M/RU/2025/04/21/S2B_MSIL2A_20250421T080609_N0511_R078_T35MRU_20250421T110048.SAFE/DATASTRIP/DS_2BPS_20250421T110048_S20250421T082956/MTD_DS.xml",
          "tilejson": "https://planetarycomputer.microsoft.com/api/data/v1/item/tilejson.json?collection=sentinel-2-l2a&item=S2B_MSIL2A_20250421T080609_R078_T35MRU_20250421T110048&assets=visual&asset_bidx=visual%7C1%2C2%2C3&nodata=0&format=png",
          "rendered_preview": "https://planetarycomputer.microsoft.com/api/data/v1/item/preview.png?collection=sentinel-2-l2a&item=S2B_MSIL2A_20250421T080609_R078_T35MRU_20250421T110048&assets=visual&asset_bidx=visual%7C1%2C2%2C3&nodata=0&format=png"
        },
        "stac_properties": {
          "datetime": "2025-04-21T08:06:09.024000Z",
          "platform": "Sentinel-2B",
          "instruments": [
            "msi"
          ],
          "s2:mgrs_tile": "35MRU",
          "constellation": "Sentinel 2",
          "s2:granule_id": "S2B_OPER_MSI_L2A_TL_2BPS_20250421T110048_A042432_T35MRU_N05.11",
          "eo:cloud_cover": 11.500805,
          "s2:datatake_id": "GS2B_20250421T080609_042432_N05.11",
          "s2:product_uri": "S2B_MSIL2A_20250421T080609_N0511_R078_T35MRU_20250421T110048.SAFE",
          "s2:datastrip_id": "S2B_OPER_MSI_L2A_DS_2BPS_20250421T110048_S20250421T082956_N05.11",
          "s2:product_type": "S2MSI2A",
          "sat:orbit_state": "descending",
          "s2:datatake_type": "INS-NOBS",
          "s2:generation_time": "2025-04-21T11:00:48.000000Z",
          "sat:relative_orbit": 78,
          "s2:water_percentage": 1.551929,
          "s2:mean_solar_zenith": 25.4818322664693,
          "s2:mean_solar_azimuth": 57.6930386817303,
          "s2:processing_baseline": "05.11",
          "s2:snow_ice_percentage": 0.0,
          "s2:vegetation_percentage": 75.615495,
          "s2:thin_cirrus_percentage": 0.0,
          "s2:cloud_shadow_percentage": 8.260819,
          "s2:nodata_pixel_percentage": 0.0,
          "s2:unclassified_percentage": 0.199123,
          "s2:not_vegetated_percentage": 2.826032,
          "s2:degraded_msi_data_percentage": 0.0149,
          "s2:high_proba_clouds_percentage": 5.050816,
          "s2:reflectance_conversion_factor": 0.992676079552018,
          "s2:medium_proba_clouds_percentage": 6.449988,
          "s2:saturated_defective_pixel_percentage": 0.0,
          "proj:code": "EPSG:32735"
        }
      }
    }
  ]
}