{
  "type": "FeatureCollection",
  "features": [
    {
      "type": "Feature",
      "id": "S2C_MSIL2A_20250317T080721_R078_T35MRU_20250317T132157",
      "geometry": {
        "type": "Polygon",
        "coordinates": [
          [
            [
              29.6951767,
              -0.9033618
            ],
            [
              30.6804936,
              -0.9024912
            ],
            [
              30.68204,
              -1.8938167
            ],
            [
              29.6963105,
              -1.895644
            ],
            [
              29.6951767,
              -0.9033618
            ]
          ]
        ]
      },
      "properties": {
        "id": "S2C_MSIL2A_20250317T080721_R078_T35MRU_20250317T132157",
        "collection": "sentinel-2-l2a",
        "datetime": "2025-03-17T08:07:21.025000Z",
        "cloud_cover": 24.115229,
        "assets": {
          "AOT": "https://sentinel2l2a01.blob.core.windows.net/sentinel2-l2/35/M/RU/2025/03/17/S2C_MSIL2A_20250317T080721_N0511_R078_T35MRU_20250317T132157.SAFE/GRANULE/L2A_T35MRU_A002765_20250317T082756/IMG_DATA/R10m/T35MRU_20250317T080721_AOT_10m.tif",
          "B01": "https://sentinel2l2a01.blob.core.windows.net/sentinel2-l2/35/M/RU/2025/03/17/S2C_MSIL2A_20250317T080721_N0511_R078_T35MRU_20250317T132157.SAFE/GRANULE/L2A_T35MRU_A002765_20250317T082756/IMG_DATA/R60m/T35MRU_20250317T080721_B01_60m.tif",
          "B02": "https://sentinel2l2a01.blob.core.windows.net/sentinel2-l2/35/M/RU/2025/03/17/S2C_MSIL2A_20250317T080721_N0511_R078_T35MRU_20250317T132157.SAFE/GRANULE/L2A_T35MRU_A002765_20250317T082756/IMG_DATA/R10m/T35MRU_20250317T080721_B02_10m.tif",
          "B03": "https://sentinel2l2a01.blob.core.windows.net/sentinel2-l2/35/M/RU/2025/03/17/S2C_MSIL2A_20250317T080721_N0511_R078_T35MRU_20250317T132157.SAFE/GRANULE/L2A_T35MRU_A002765_20250317T082756/IMG_DATA/R10m/T35MRU_20250317T080721_B03_10m.tif",
          "B04": "https://sentinel2l2a01.blob.core.windows.net/sentinel2-l2/35/M/RU/2025/03/17/S2C_MSIL2A_20250317T080721_N0511_R078_T35MRU_20250317T132157.SAFE/GRANULE/L2A_T35MRU_A002765_20250317T082756/IMG_DATA/R10m/T35MRU_20250317T080721_B04_10m.tif",
          "B05": "https://sentinel2l2a01.blob.core.windows.net/sentinel2-l2/35/M/RU/2025/03/17/S2C_MSIL2A_20250317T080721_N0511_R078_T35MRU_20250317T132157.SAFE/GRANULE/L2A_T35MRU_A002765_20250317T082756/IMG_DATA/R20m/T35MRU_20250317T080721_B05_20m.tif",
          "B06": "https://sentinel2l2a01.blob.core.windows.net/sentinel2-l2/35/M/RU/2025/03/17/S2C_MSIL2A_20250317T080721_N0511_R078_T35MRU_20250317T132157.SAFE/GRANULE/L2A_T35MRU_A002765_20250317T082756/IMG_DATA/R20m/T35MRU_20250317T080721_B06_20m.tif",
          "B07": "https://sentinel2l2a01.blob.core.windows.net/sentinel2-l2/35/M/RU/2025/03/17/S2C_MSIL2A_20250317T080721_N0511_R078_T35MRU_20250317T132157.SAFE/GRANULE/L2A_T35MRU_A002765_20250317T082756/IMG_DATA/R20m/T35MRU_20250317T080721_B07_20m.tif",
          "B08": "https://sentinel2l2a01.blob.core.windows.net/sentinel2-l2/35/M/RU/2025/03/17/S2C_MSIL2A_20250317T080721_N0511_R078_T35MRU_20250317T132157.SAFE/GRANULE/L2A_T35MRU_A002765_20250317T082756/IMG_DATA/R10m/T35MRU_20250317T080721_B08_10m.tif",
          "B09": "https://sentinel2l2a01.blob.core.windows.net/sentinel2-l2/35/M/RU/2025/03/17/S2C_MSIL2A_20250317T080721_N0511_R078_T35MRU_20250317T132157.SAFE/GRANULE/L2A_T35MRU_A002765_20250317T082756/IMG_DATA/R60m/T35MRU_20250317T080721_B09_60m.tif",
          "B11": "https://sentinel2l2a01.blob.core.windows.net/sentinel2-l2/35/M/RU/2025/03/17/S2C_MSIL2A_20250317T080721_N0511_R078_T35MRU_20250317T132157.SAFE/GRANULE/L2A_T35MRU_A002765_20250317T082756/IMG_DATA/R20m/T35MRU_20250317T080721_B11_20m.tif",
          "B12": "https://sentinel2l2a01.blob.core.windows.net/sentinel2-l2/35/M/RU/2025/03/17/S2C_MSIL2A_20250317T080721_N0511_R078_T35MRU_20250317T132157.SAFE/GRANULE/L2A_T35MRU_A002765_20250317T082756/IMG_DATA/R20m/T35MRU_20250317T080721_B12_20m.tif",
          "B8A": "https://sentinel2l2a01.blob.core.windows.net/sentinel2-l2/35/M/RU/2025/03/17/S2C_MSIL2A_20250317T080721_N0511_R078_T35MRU_20250317T132157.SAFE/GRANULE/L2A_T35MRU_A002765_20250317T082756/IMG_DATA/R20m/T35MRU_20250317T080721_B8A_20m.tif",
          "SCL": "https://sentinel2l2a01.blob.core.windows.net/sentinel2-l2/35/M/RU/2025/03/17/S2C_MSIL2A_20250317T080721_N0511_R078_T35MRU_20250317T132157.SAFE/GRANULE/L2A_T35MRU_A002765_20250317T082756/IMG_DATA/R20m/T35MRU_20250317T080721_SCL_20m.tif",
          "WVP": "https://sentinel2l2a01.blob.core.windows.net/sentinel2-l2/35/M/RU/2025/03/17/S2C_MSIL2A_20250317T080721_N0511_R078_T35MRU_20250317T132157.SAFE/GRANULE/L2A_T35MRU_A002765_20250317T082756/IMG_DATA/R10m/T35MRU_20250317T080721_WVP_10m.tif",
          "visual": "https://sentinel2l2a01.blob.core.windows.net/sentinel2-l2/35/M/RU/2025/03/17/S2C_MSIL2A_20250317T080721_N0511_R078_T35MRU_20250317T132157.SAFE/GRANULE/L2A_T35MRU_A002765_20250317T082756/IMG_DATA/R10m/T35MRU_20250317T080721_TCI_10m.tif",
          "safe-manifest": "https://sentinel2l2a01.blob.core.windows.net/sentinel2-l2/35/M/RU/2025/03/17/S2C_MSIL2A_20250317T080721_N0511_R078_T35MRU_20250317T132157.SAFE/manifest.safe",
          "granule-metadata": "https://sentinel2l2a01.blob.core.windows.net/sentinel2-l2/35/M/RU/2025/03/17/S2C_MSIL2A_20250317T080721_N0511_R078_T35MRU_20250317T132157.SAFE/GRANULE/L2A_T35MRU_A002765_20250317T082756/MTD_TL.xml",
          "inspire-metadata": "https://sentinel2l2a01.blob.core.windows.net/sentinel2-l2/35/M/RU/2025/03/17/S2C_MSIL2A_20250317T080721_N0511_R078_T35MRU_20250317T132157.SAFE/INSPIRE.xml",
          "product-metadata": "https://sentinel2l2a01.blob.core.windows.net/sentinel2-l2/35/M/RU/2025/03/17/S2C_MSIL2A_20250317T080721_N0511_R078_T35MRU_20250317T132157.SAFE/MTD_MSIL2A.xml",
          "datastrip-metadata": "https://sentinel2l2a01.blob.core.windows.net/sentinel2-l2/35/M/RU/2025/03/17/S2C_MSIL2A_20250317T080721_N0511_R078_T35MRU_20250317T132157.SAFE/DATASTRIP/DS_2CPS_20250317T132157_S20250317T082756/MTD_DS.xml",
          "tilejson": "https://planetarycomputer.microsoft.com/api/data/v1/item/tilejson.json?collection=sentinel-2-l2a&item=S2C_MSIL2A_20250317T080721_R078_T35MRU_20250317T132157&assets=visual&asset_bidx=visual%7C1%2C2%2C3&nodata=0&format=png",
          "rendered_preview": "https://planetarycomputer.microsoft.com/api/data/v1/item/preview.png?collection=sentinel-2-l2a&item=S2C_MSIL2A_20250317T080721_R078_T35MRU_20250317T132157&assets=visual&asset_bidx=visual%7C1%2C2%2C3&nodata=0&format=png"
        },
        "stac_properties": {
          "datetime": "2025-03-17T08:07:21.025000Z",
          "platform": "Sentinel-2C",
          "instruments": [
            "msi"
          ],
          "s2:mgrs_tile": "35MRU",
          "constellation": "Sentinel 2",
          "s2:granule_id": "S2C_OPER_MSI_L2A_TL_2CPS_20250317T132157_A002765_T35MRU_N05.11",
          "eo:cloud_cover": 24.115229,
          "s2:datatake_id": "GS2C_20250317T080721_002765_N05.11",
          "s2:product_uri": "S2C_MSIL2A_20250317T080721_N0511_R078_T35MRU_20250317T132157.SAFE",
          "s2:datastrip_id": "S2C_OPER_MSI_L2A_DS_2CPS_20250317T132157_S20250317T082756_N05.11",
          "s2:product_type": "S2MSI2A",
          "sat:orbit_state": "descending",
          "s2:datatake_type": "INS-NOBS",
          "s2:generation_time": "2025-03-17T13:21:57.000000Z",
          "sat:relative_orbit": 78,
          "s2:water_percentage": 1.315978,
          "s2:mean_solar_zenith": 24.1323048351178,
          "s2:mean_solar_azimuth": 89.790794991814,
          "s2:processing_baseline": "05.11",
          "s2:snow_ice_percentage": 0.0,
          "s2:vegetation_percentage": 45.407674,
          "s2:thin_cirrus_percentage": 2.627324,
          "s2:cloud_shadow_percentage": 11.544285,
          "s2:nodata_pixel_percentage": 0.0,
          "s2:unclassified_percentage": 0.378897,
          "s2:not_vegetated_percentage": 17.151563,
          "s2:degraded_msi_data_percentage": 0.0177,
          "s2:high_proba_clouds_percentage": 10.468001,
          "s2:reflectance_conversion_factor": 1.01252980541287,
          "s2:medium_proba_clouds_percentage": 11.019903,
          "s2:saturated_defective_pixel_percentage": 0.0,
          "proj:code": "EPSG:32735"
        }
      }
    },
    {
      "type": "Feature",
      "id": "S2C_MSIL2A_20250225T080941_R078_T35MRT_20250225T113814",
      "geometry": {
        "type": "Polygon",
        "coordinates": [
          [
            [
              29.6961769,
              -1.8072608
            ],
            [
              30.6818577,
              -1.8055187
            ],
            [
              30.684405,
              -2.796832
            ],
            [
              29.6980446,
              -2.7995317
            ],
            [
              29.6961769,
              -1.8072608
            ]
          ]
        ]
      },
      "properties": {
        "id": "S2C_MSIL2A_20250225T080941_R078_T35MRT_20250225T113814",
        "collection": "sentinel-2-l2a",
        "datetime": "2025-02-25T08:09:41.025000Z",
        "cloud_cover": 12.941328,
        "assets": {
          "AOT": "https://sentinel2l2a01.blob.core.windows.net/sentinel2-l2/35/M/RT/2025/02/25/S2C_MSIL2A_20250225T080941_N0511_R078_T35MRT_20250225T113814.SAFE/GRANULE/L2A_T35MRT_A002479_20250225T082453/IMG_DATA/R10m/T35MRT_20250225T080941_AOT_10m.tif",
          "B01": "https://sentinel2l2a01.blob.core.windows.net/sentinel2-l2/35/M/RT/2025/02/25/S2C_MSIL2A_20250225T080941_N0511_R078_T35MRT_20250225T113814.SAFE/GRANULE/L2A_T35MRT_A002479_20250225T082453/IMG_DATA/R60m/T35MRT_20250225T080941_B01_60m.tif",
          "B02": "https://sentinel2l2a01.blob.core.windows.net/sentinel2-l2/35/M/RT/2025/02/25/S2C_MSIL2A_20250225T080941_N0511_R078_T35MRT_20250225T113814.SAFE/GRANULE/L2A_T35MRT_A002479_20250225T082453/IMG_DATA/R10m/T35MRT_20250225T080941_B02_10m.tif",
          "B03": "https://sentinel2l2a01.blob.core.windows.net/sentinel2-l2/35/M/RT/2025/02/25/S2C_MSIL2A_20250225T080941_N0511_R078_T35MRT_20250225T113814.SAFE/GRANULE/L2A_T35MRT_A002479_20250225T082453/IMG_DATA/R10m/T35MRT_20250225T080941_B03_10m.tif",
          "B04": "https://sentinel2l2a01.blob.core.windows.net/sentinel2-l2/35/M/RT/2025/02/25/S2C_MSIL2A_20250225T080941_N0511_R078_T35MRT_20250225T113814.SAFE/GRANULE/L2A_T35MRT_A002479_20250225T082453/IMG_DATA/R10m/T35MRT_20250225T080941_B04_10m.tif",
          "B05": "https://sentinel2l2a01.blob.core.windows.net/sentinel2-l2/35/M/RT/2025/02/25/S2C_MSIL2A_20250225T080941_N0511_R078_T35MRT_20250225T113814.SAFE/GRANULE/L2A_T35MRT_A002479_20250225T082453/IMG_DATA/R20m/T35MRT_20250225T080941_B05_20m.tif",
          "B06": "https://sentinel2l2a01.blob.core.windows.net/sentinel2-l2/35/M/RT/2025/02/25/S2C_MSIL2A_20250225T080941_N0511_R078_T35MRT_20250225T113814.SAFE/GRANULE/L2A_T35MRT_A002479_20250225T082453/IMG_DATA/R20m/T35MRT_20250225T080941_B06_20m.tif",
          "B07": "https://sentinel2l2a01.blob.core.windows.net/sentinel2-l2/35/M/RT/2025/02/25/S2C_MSIL2A_20250225T080941_N0511_R078_T35MRT_20250225T113814.SAFE/GRANULE/L2A_T35MRT_A002479_20250225T082453/IMG_DATA/R20m/T35MRT_20250225T080941_B07_20m.tif",
          "B08": "https://sentinel2l2a01.blob.core.windows.net/sentinel2-l2/35/M/RT/2025/02/25/S2C_MSIL2A_20250225T080941_N0511_R078_T35MRT_20250225T113814.SAFE/GRANULE/L2A_T35MRT_A002479_20250225T082453/IMG_DATA/R10m/T35MRT_20250225T080941_B08_10m.tif",
          "B09": "https://sentinel2l2a01.blob.core.windows.net/sentinel2-l2/35/M/RT/2025/02/25/S2C_MSIL2A_20250225T080941_N0511_R078_T35MRT_20250225T113814.SAFE/GRANULE/L2A_T35MRT_A002479_20250225T082453/IMG_DATA/R60m/T35MRT_20250225T080941_B09_60m.tif",
          "B11": "https://sentinel2l2a01.blob.core.windows.net/sentinel2-l2/35/M/RT/2025/02/25/S2C_MSIL2A_20250225T080941_N0511_R078_T35MRT_20250225T113814.SAFE/GRANULE/L2A_T35MRT_A002479_20250225T082453/IMG_DATA/R20m/T35MRT_20250225T080941_B11_20m.tif",
          "B12": "https://sentinel2l2a01.blob.core.windows.net/sentinel2-l2/35/M/RT/2025/02/25/S2C_MSIL2A_20250225T080941_N0511_R078_T35MRT_20250225T113814.SAFE/GRANULE/L2A_T35MRT_A002479_20250225T082453/IMG_DATA/R20m/T35MRT_20250225T080941_B12_20m.tif",
          "B8A": "https://sentinel2l2a01.blob.core.windows.net/sentinel2-l2/35/M/RT/2025/02/25/S2C_MSIL2A_20250225T080941_N0511_R078_T35MRT_20250225T113814.SAFE/GRANULE/L2A_T35MRT_A002479_20250225T082453/IMG_DATA/R20m/T35MRT_20250225T080941_B8A_20m.tif",
          "SCL": "https://sentinel2l2a01.blob.core.windows.net/sentinel2-l2/35/M/RT/2025/02/25/S2C_MSIL2A_20250225T080941_N0511_R078_T35MRT_20250225T113814.SAFE/GRANULE/L2A_T35MRT_A002479_20250225T082453/IMG_DATA/R20m/T35MRT_20250225T080941_SCL_20m.tif",
          "WVP": "https://sentinel2l2a01.blob.core.windows.net/sentinel2-l2/35/M/RT/2025/02/25/S2C_MSIL2A_20250225T080941_N0511_R078_T35MRT_20250225T113814.SAFE/GRANULE/L2A_T35MRT_A002479_20250225T082453/IMG_DATA/R10m/T35MRT_20250225T080941_WVP_10m.tif",
          "visual": "https://sentinel2l2a01.blob.core.windows.net/sentinel2-l2/35/M/RT/2025/02/25/S2C_MSIL2A_20250225T080941_N0511_R078_T35MRT_20250225T113814.SAFE/GRANULE/L2A_T35MRT_A002479_20250225T082453/IMG_DATA/R10m/T35MRT_20250225T080941_TCI_10m.tif",
          "safe-manifest": "https://sentinel2l2a01.blob.core.windows.net/sentinel2-l2/35/M/RT/2025/02/25/S2C_MSIL2A_20250225T080941_N0511_R078_T35MRT_20250225T113814.SAFE/manifest.safe",
          "granule-metadata": "https://sentinel2l2a01.blob.core.windows.net/sentinel2-l2/35/M/RT/2025/02/25/S2C_MSIL2A_20250225T080941_N0511_R078_T35MRT_20250225T113814.SAFE/GRANULE/L2A_T35MRT_A002479_20250225T082453/MTD_TL.xml",
          "inspire-metadata": "https://sentinel2l2a01.blob.core.windows.net/sentinel2-l2/35/M/RT/2025/02/25/S2C_MSIL2A_20250225T080941_N0511_R078_T35MRT_20250225T113814.SAFE/INSPIRE.xml",
          "product-metadata": "https://sentinel2l2a01.blob.core.windows.net/sentinel2-l2/35/M/RT/2025/02/25/S2C_MSIL2A_20250225T080941_N0511_R078_T35MRT_20250225T113814.SAFE/MTD_MSIL2A.xml",
          "datastrip-metadata": "https://sentinel2l2a01.blob.core.windows.net/sentinel2-l2/35/M/RT/2025/02/25/S2C_MSIL2A_20250225T080941_N0511_R078_T35MRT_20250225T113814.SAFE/DATASTRIP/DS_2CPS_20250225T113814_S20250225T082453/MTD_DS.xml",
          "tilejson": "https://planetarycomputer.microsoft.com/api/data/v1/item/tilejson.json?collection=sentinel-2-l2a&item=S2C_MSIL2A_20250225T080941_R078_T35MRT_20250225T113814&assets=visual&asset_bidx=visual%7C1%2C2%2C3&nodata=0&format=png",
          "rendered_preview": "https://planetarycomputer.microsoft.com/api/data/v1/item/preview.png?collection=sentinel-2-l2a&item=S2C_MSIL2A_20250225T080941_R078_T35MRT_20250225T113814&assets=visual&asset_bidx=visual%7C1%2C2%2C3&nodata=0&format=png"
        },
        "stac_properties": {
          "datetime": "2025-02-25T08:09:41.025000Z",
          "platform": "Sentinel-2C",
          "instruments": [
            "msi"
          ],
          "s2:mgrs_tile": "35MRT",
          "constellation": "Sentinel 2",
          "s2:granule_id": "S2C_OPER_MSI_L2A_TL_2CPS_20250225T113814_A002479_T35MRT_N05.11",
          "eo:cloud_cover": 12.941328,
          "s2:datatake_id": "GS2C_20250225T080941_002479_N05.11",
          "s2:product_uri": "S2C_MSIL2A_20250225T080941_N0511_R078_T35MRT_20250225T113814.SAFE",
          "s2:datastrip_id": "S2C_OPER_MSI_L2A_DS_2CPS_20250225T113814_S20250225T082453_N05.11",
          "s2:product_type": "S2MSI2A",
          "sat:orbit_state": "descending",
          "s2:datatake_type": "INS-NOBS",
          "s2:generation_time": "2025-02-25T11:38:14.000000Z",
          "sat:relative_orbit": 78,
          "s2:water_percentage": 2.335865,
          "s2:mean_solar_zenith": 25.9759553691394,
          "s2:mean_solar_azimuth": 105.827348320323,
          "s2:processing_baseline": "05.11",
          "s2:snow_ice_percentage": 0.0,
          "s2:vegetation_percentage": 48.913047,
          "s2:thin_cirrus_percentage": 3.335878,
          "s2:cloud_shadow_percentage": 1.829805,
          "s2:nodata_pixel_percentage": 0.0,
          "s2:unclassified_percentage": 2.293552,
          "s2:not_vegetated_percentage": 31.645423,
          "s2:degraded_msi_data_percentage": 0.0208,
          "s2:high_proba_clouds_percentage": 4.043719,
          "s2:reflectance_conversion_factor": 1.0225385658891,
          "s2:medium_proba_clouds_percentage": 5.56173,
          "s2:saturated_defective_pixel_percentage": 0.0,
          "proj:code": "EPSG:32735"
        }
      }
    },
    {
      "type": "Feature",
      "id": "S2B_MSIL2A_20250220T080859_R078_T35MRU_20250220T102720",
      "geometry": {
        "type": "Polygon",
        "coordinates": [
          [
            [
              29.6951767,
              -0.9033618
            ],
            [
              30.6804936,
              -0.9024912
            ],
            [
              30.68204,
              -1.8938167
            ],
            [
              29.6963105,
              -1.895644
            ],
            [
              29.6951767,
              -0.9033618
            ]
          ]
        ]
      },
      "properties": {
        "id": "S2B_MSIL2A_20250220T080859_R078_T35MRU_20250220T102720",
        "collection": "sentinel-2-l2a",
        "datetime": "2025-02-20T08:08:59.024000Z",
        "cloud_cover": 3.05427,
        "assets": {
          "AOT": "https://sentinel2l2a01.blob.core.windows.net/sentinel2-l2/35/M/RU/2025/02/20/S2B_MSIL2A_20250220T080859_N0511_R078_T35MRU_20250220T102720.SAFE/GRANULE/L2A_T35MRU_A041574_20250220T082908/IMG_DATA/R10m/T35MRU_20250220T080859_AOT_10m.tif",
          "B01": "https://sentinel2l2a01.blob.core.windows.net/sentinel2-l2/35/M/RU/2025/02/20/S2B_MSIL2A_20250220T080859_N0511_R078_T35MRU_20250220T102720.SAFE/GRANULE/L2A_T35MRU_A041574_20250220T082908/IMG_DATA/R60m/T35MRU_20250220T080859_B01_60m.tif",
          "B02": "https://sentinel2l2a01.blob.core.windows.net/sentinel2-l2/35/M/RU/2025/02/20/S2B_MSIL2A_20250220T080859_N0511_R078_T35MRU_20250220T102720.SAFE/GRANULE/L2A_T35MRU_A041574_20250220T082908/IMG_DATA/R10m/T35MRU_20250220T080859_B02_10m.tif",
          "B03": "https://sentinel2l2a01.blob.core.windows.net/sentinel2-l2/35/M/RU/2025/02/20/S2B_MSIL2A_20250220T080859_N0511_R078_T35MRU_20250220T102720.SAFE/GRANULE/L2A_T35MRU_A041574_20250220T082908/IMG_DATA/R10m/T35MRU_20250220T080859_B03_10m.tif",
          "B04": "https://sentinel2l2a01.blob.core.windows.net/sentinel2-l2/35/M/RU/2025/02/20/S2B_MSIL2A_20250220T080859_N0511_R078_T35MRU_20250220T102720.SAFE/GRANULE/L2A_T35MRU_A041574_20250220T082908/IMG_DATA/R10m/T35MRU_20250220T080859_B04_10m.tif",
          "B05": "https://sentinel2l2a01.blob.core.windows.net/sentinel2-l2/35/M/RU/2025/02/20/S2B_MSIL2A_20250220T080859_N0511_R078_T35MRU_20250220T102720.SAFE/GRANULE/L2A_T35MRU_A041574_20250220T082908/IMG_DATA/R20m/T35MRU_20250220T080859_B05_20m.tif",
          "B06": "https://sentinel2l2a01.blob.core.windows.net/sentinel2-l2/35/M/RU/2025/02/20/S2B_MSIL2A_20250220T080859_N0511_R078_T35MRU_20250220T102720.SAFE/GRANULE/L2A_T35MRU_A041574_20250220T082908/IMG_DATA/R20m/T35MRU_20250220T080859_B06_20m.tif",
          "B07": "https://sentinel2l2a01.blob.core.windows.net/sentinel2-l2/35/M/RU/2025/02/20/S2B_MSIL2A_20250220T080859_N0511_R078_T35MRU_20250220T102720.SAFE/GRANULE/L2A_T35MRU_A041574_20250220T082908/IMG_DATA/R20m/T35MRU_20250220T080859_B07_20m.tif",
          "B08": "https://sentinel2l2a01.blob.core.windows.net/sentinel2-l2/35/M/RU/2025/02/20/S2B_MSIL2A_20250220T080859_N0511_R078_T35MRU_20250220T102720.SAFE/GRANULE/L2A_T35MRU_A041574_20250220T082908/IMG_DATA/R10m/T35MRU_20250220T080859_B08_10m.tif",
          "B09": "https://sentinel2l2a01.blob.core.windows.net/sentinel2-l2/35/M/RU/2025/02/20/S2B_MSIL2A_20250220T080859_N0511_R078_T35MRU_20250220T102720.SAFE/GRANULE/L2A_T35MRU_A041574_20250220T082908/IMG_DATA/R60m/T35MRU_20250220T080859_B09_60m.tif",
          "B11": "https://sentinel2l2a01.blob.core.windows.net/sentinel2-l2/35/M/RU/2025/02/20/S2B_MSIL2A_20250220T080859_N0511_R078_T35MRU_20250220T102720.SAFE/GRANULE/L2A_T35MRU_A041574_20250220T082908/IMG_DATA/R20m/T35MRU_20250220T080859_B11_20m.tif",
          "B12": "https://sentinel2l2a01.blob.core.windows.net/sentinel2-l2/35/M/RU/2025/02/20/S2B_MSIL2A_20250220T080859_N0511_R078_T35MRU_20250220T102720.SAFE/GRANULE/L2A_T35MRU_A041574_20250220T082908/IMG_DATA/R20m/T35MRU_20250220T080859_B12_20m.tif",
          "B8A": "https://sentinel2l2a01.blob.core.windows.net/sentinel2-l2/35/M/RU/2025/02/20/S2B_MSIL2A_20250220T080859_N0511_R078_T35MRU_20250220T102720.SAFE/GRANULE/L2A_T35MRU_A041574_20250220T082908/IMG_DATA/R20m/T35MRU_20250220T080859_B8A_20m.tif",
          "SCL": "https://sentinel2l2a01.blob.core.windows.net/sentinel2-l2/35/M/RU/2025/02/20/S2B_MSIL2A_20250220T080859_N0511_R078_T35MRU_20250220T102720.SAFE/GRANULE/L2A_T35MRU_A041574_20250220T082908/IMG_DATA/R20m/T35MRU_20250220T080859_SCL_20m.tif",
          "WVP": "https://sentinel2l2a01.blob.core.windows.net/sentinel2-l2/35/M/RU/2025/02/20/S2B_MSIL2A_20250220T080859_N0511_R078_T35MRU_20250220T102720.SAFE/GRANULE/L2A_T35MRU_A041574_20250220T082908/IMG_DATA/R10m/T35MRU_20250220T080859_WVP_10m.tif",
          "visual": "https://sentinel2l2a01.blob.core.windows.net/sentinel2-l2/35/M/RU/2025/02/20/S2B_MSIL2A_20250220T080859_N0511_R078_T35MRU_20250220T102720.SAFE/GRANULE/L2A_T35MRU_A041574_20250220T082908/IMG_DATA/R10m/T35MRU_20250220T080859_TCI_10m.tif",
          "safe-manifest": "https://sentinel2l2a01.blob.core.windows.net/sentinel2-l2/35/M/RU/2025/02/20/S2B_MSIL2A_20250220T080859_N0511_R078_T35MRU_20250220T102720.SAFE/manifest.safe",
          "granule-metadata": "https://sentinel2l2a01.blob.core.windows.net/sentinel2-l2/35/M/RU/2025/02/20/S2B_MSIL2A_20250220T080859_N0511_R078_T35MRU_20250220T102720.SAFE/GRANULE/L2A_T35MRU_A041574_20250220T082908/MTD_TL.xml",
          "inspire-metadata": "https://sentinel2l2a01.blob.core.windows.net/sentinel2-l2/35/M/RU/2025/02/20/S2B_MSIL2A_20250220T080859_N0511_R078_T35MRU_20250220T102720.SAFE/INSPIRE.xml",
          "product-metadata": "https://sentinel2l2a01.blob.core.windows.net/sentinel2-l2/35/M/RU/2025/02/20/S2B_MSIL2A_20250220T080859_N0511_R078_T35MRU_20250220T102720.SAFE/MTD_MSIL2A.xml",
          "datastrip-metadata": "https://sentinel2l2a01.blob.core.windows.net/sentinel2-l2/35/M/RU/2025/02/20/S2B_MSIL2A_20250220T080859_N0511_R078_T35MRU_20250220T102720.SAFE/DATASTRIP/DS_2BPS_20250220T102720_S20250220T082908/MTD_DS.xml",
          "tilejson": "https://planetarycomputer.microsoft.com/api/data/v1/item/tilejson.json?collection=sentinel-2-l2a&item=S2B_MSIL2A_20250220T080859_R078_T35MRU_20250220T102720&assets=visual&asset_bidx=visual%7C1%2C2%2C3&nodata=0&format=png",
          "rendered_preview": "https://planetarycomputer.microsoft.com/api/data/v1/item/preview.png?collection=sentinel-2-l2a&item=S2B_MSIL2A_20250220T080859_R078_T35MRU_20250220T102720&assets=visual&asset_bidx=visual%7C1%2C2%2C3&nodata=0&format=png"
        },
        "stac_properties": {
          "datetime": "2025-02-20T08:08:59.024000Z",
          "platform": "Sentinel-2B",
          "instruments": [
            "msi"
          ],
          "s2:mgrs_tile": "35MRU",
          "constellation": "Sentinel 2",
          "s2:granule_id": "S2B_OPER_MSI_L2A_TL_2BPS_20250220T102720_A041574_T35MRU_N05.11",
          "eo:cloud_cover": 3.05427,
          "s2:datatake_id": "GS2B_20250220T080859_041574_N05.11",
          "s2:product_uri": "S2B_MSIL2A_20250220T080859_N0511_R078_T35MRU_20250220T102720.SAFE",
          "s2:datastrip_id": "S2B_OPER_MSI_L2A_DS_2BPS_20250220T102720_S20250220T082908_N05.11",
          "s2:product_type": "S2MSI2A",
          "sat:orbit_state": "descending",
          "s2:datatake_type": "INS-NOBS",
          "s2:generation_time": "2025-02-20T10:27:20.000000Z",
          "sat:relative_orbit": 78,
          "s2:water_percentage": 1.606345,
          "s2:mean_solar_zenith": 27.0625643377233,
          "s2:mean_solar_azimuth": 111.307907806632,
          "s2:processing_baseline": "05.11",
          "s2:snow_ice_percentage": 0.0,
          "s2:vegetation_percentage": 68.238193,
          "s2:thin_cirrus_percentage": 0.001457,
          "s2:cloud_shadow_percentage": 2.574112,
          "s2:nodata_pixel_percentage": 0.0,
          "s2:unclassified_percentage": 0.353373,
          "s2:not_vegetated_percentage": 24.106997,
          "s2:degraded_msi_data_percentage": 0.0171,
          "s2:high_proba_clouds_percentage": 1.50386,
          "s2:reflectance_conversion_factor": 1.02468364925269,
          "s2:medium_proba_clouds_percentage": 1.548953,
          "s2:saturated_defective_pixel_percentage": 0.0,
          "proj:code": "EPSG:32735"
        }
      }
    },
    {
      "type": "Feature",
      "id": "S2B_MSIL2A_20250220T080859_R078_T35MRT_20250220T102720",
      "geometry": {
        "type": "Polygon",
        "coordinates": [
          [
            [
              29.6961769,
              -1.8072608
            ],
            [
              30.6818577,
              -1.8055187
            ],
            [
              30.684405,
              -2.796832
            ],
            [
              29.6980446,
              -2.7995317
            ],
            [
              29.6961769,
              -1.8072608
            ]
          ]
        ]
      },
      "properties": {
        "id": "S2B_MSIL2A_20250220T080859_R078_T35MRT_20250220T102720",
        "collection": "sentinel-2-l2a",
        "datetime": "2025-02-20T08:08:59.024000Z",
        "cloud_cover": 2.971523,
        "assets": {
          "AOT": "https://sentinel2l2a01.blob.core.windows.net/sentinel2-l2/35/M/RT/2025/02/20/S2B_MSIL2A_20250220T080859_N0511_R078_T35MRT_20250220T102720.SAFE/GRANULE/L2A_T35MRT_A041574_20250220T082908/IMG_DATA/R10m/T35MRT_20250220T080859_AOT_10m.tif",
          "B01": "https://sentinel2l2a01.blob.core.windows.net/sentinel2-l2/35/M/RT/2025/02/20/S2B_MSIL2A_20250220T080859_N0511_R078_T35MRT_20250220T102720.SAFE/GRANULE/L2A_T35MRT_A041574_20250220T082908/IMG_DATA/R60m/T35MRT_20250220T080859_B01_60m.tif",
          "B02": "https://sentinel2l2a01.blob.core.windows.net/sentinel2-l2/35/M/RT/2025/02/20/S2B_MSIL2A_20250220T080859_N0511_R078_T35MRT_20250220T102720.SAFE/GRANULE/L2A_T35MRT_A041574_20250220T082908/IMG_DATA/R10m/T35MRT_20250220T080859_B02_10m.tif",
          "B03": "https://sentinel2l2a01.blob.core.windows.net/sentinel2-l2/35/M/RT/2025/02/20/S2B_MSIL2A_20250220T080859_N0511_R078_T35MRT_20250220T102720.SAFE/GRANULE/L2A_T35MRT_A041574_20250220T082908/IMG_DATA/R10m/T35MRT_20250220T080859_B03_10m.tif",
          "B04": "https://sentinel2l2a01.blob.core.windows.net/sentinel2-l2/35/M/RT/2025/02/20/S2B_MSIL2A_20250220T080859_N0511_R078_T35MRT_20250220T102720.SAFE/GRANULE/L2A_T35MRT_A041574_20250220T082908/IMG_DATA/R10m/T35MRT_20250220T080859_B04_10m.tif",
          "B05": "https://sentinel2l2a01.blob.core.windows.net/sentinel2-l2/35/M/RT/2025/02/20/S2B_MSIL2A_20250220T080859_N0511_R078_T35MRT_20250220T102720.SAFE/GRANULE/L2A_T35MRT_A041574_20250220T082908/IMG_DATA/R20m/T35MRT_20250220T080859_B05_20m.tif",
          "B06": "https://sentinel2l2a01.blob.core.windows.net/sentinel2-l2/35/M/RT/2025/02/20/S2B_MSIL2A_20250220T080859_N0511_R078_T35MRT_20250220T102720.SAFE/GRANULE/L2A_T35MRT_A041574_20250220T082908/IMG_DATA/R20m/T35MRT_20250220T080859_B06_20m.tif",
          "B07": "https://sentinel2l2a01.blob.core.windows.net/sentinel2-l2/35/M/RT/2025/02/20/S2B_MSIL2A_20250220T080859_N0511_R078_T35MRT_20250220T102720.SAFE/GRANULE/L2A_T35MRT_A041574_20250220T082908/IMG_DATA/R20m/T35MRT_20250220T080859_B07_20m.tif",
          "B08": "https://sentinel2l2a01.blob.core.windows.net/sentinel2-l2/35/M/RT/2025/02/20/S2B_MSIL2A_20250220T080859_N0511_R078_T35MRT_20250220T102720.SAFE/GRANULE/L2A_T35MRT_A041574_20250220T082908/IMG_DATA/R10m/T35MRT_20250220T080859_B08_10m.tif",
          "B09": "https://sentinel2l2a01.blob.core.windows.net/sentinel2-l2/35/M/RT/2025/02/20/S2B_MSIL2A_20250220T080859_N0511_R078_T35MRT_20250220T102720.SAFE/GRANULE/L2A_T35MRT_A041574_20250220T082908/IMG_DATA/R60m/T35MRT_20250220T080859_B09_60m.tif",
          "B11": "https://sentinel2l2a01.blob.core.windows.net/sentinel2-l2/35/M/RT/2025/02/20/S2B_MSIL2A_20250220T080859_N0511_R078_T35MRT_20250220T102720.SAFE/GRANULE/L2A_T35MRT_A041574_20250220T082908/IMG_DATA/R20m/T35MRT_20250220T080859_B11_20m.tif",
          "B12": "https://sentinel2l2a01.blob.core.windows.net/sentinel2-l2/35/M/RT/2025/02/20/S2B_MSIL2A_20250220T080859_N0511_R078_T35MRT_20250220T102720.SAFE/GRANULE/L2A_T35MRT_A041574_20250220T082908/IMG_DATA/R20m/T35MRT_20250220T080859_B12_20m.tif",
          "B8A": "https://sentinel2l2a01.blob.core.windows.net/sentinel2-l2/35/M/RT/2025/02/20/S2B_MSIL2A_20250220T080859_N0511_R078_T35MRT_20250220T102720.SAFE/GRANULE/L2A_T35MRT_A041574_20250220T082908/IMG_DATA/R20m/T35MRT_20250220T080859_B8A_20m.tif",
          "SCL": "https://sentinel2l2a01.blob.core.windows.net/sentinel2-l2/35/M/RT/2025/02/20/S2B_MSIL2A_20250220T080859_N0511_R078_T35MRT_20250220T102720.SAFE/GRANULE/L2A_T35MRT_A041574_20250220T082908/IMG_DATA/R20m/T35MRT_20250220T080859_SCL_20m.tif",
          "WVP": "https://sentinel2l2a01.blob.core.windows.net/sentinel2-l2/35/M/RT/2025/02/20/S2B_MSIL2A_20250220T080859_N0511_R078_T35MRT_20250220T102720.SAFE/GRANULE/L2A_T35MRT_A041574_20250220T082908/IMG_DATA/R10m/T35MRT_20250220T080859_WVP_10m.tif",
          "visual": "https://sentinel2l2a01.blob.core.windows.net/sentinel2-l2/35/M/RT/2025/02/20/S2B_MSIL2A_20250220T080859_N0511_R078_T35MRT_20250220T102720.SAFE/GRANULE/L2A_T35MRT_A041574_20250220T082908/IMG_DATA/R10m/T35MRT_20250220T080859_TCI_10m.tif",
          "safe-manifest": "https://sentinel2l2a01.blob.core.windows.net/sentinel2-l2/35/M/RT/2025/02/20/S2B_MSIL2A_20250220T080859_N0511_R078_T35MRT_20250220T102720.SAFE/manifest.safe",
          "granule-metadata": "https://sentinel2l2a01.blob.core.windows.net/sentinel2-l2/35/M/RT/2025/02/20/S2B_MSIL2A_20250220T080859_N0511_R078_T35MRT_20250220T102720.SAFE/GRANULE/L2A_T35MRT_A041574_20250220T082908/MTD_TL.xml",
          "inspire-metadata": "https://sentinel2l2a01.blob.core.windows.net/sentinel2-l2/35/M/RT/2025/02/20/S2B_MSIL2A_20250220T080859_N0511_R078_T35MRT_20250220T102720.SAFE/INSPIRE.xml",
          "product-metadata": "https://sentinel2l2a01.blob.core.windows.net/sentinel2-l2/35/M/RT/2025/02/20/S2B_MSIL2A_20250220T080859_N0511_R078_T35MRT_20250220T102720.SAFE/MTD_MSIL2A.xml",
          "datastrip-metadata": "https://sentinel2l2a01.blob.core.windows.net/sentinel2-l2/35/M/RT/2025/02/20/S2B_MSIL2A_20250220T080859_N0511_R078_T35MRT_20250220T102720.SAFE/DATASTRIP/DS_2BPS_20250220T102720_S20250220T082908/MTD_DS.xml",
          "tilejson": "https://planetarycomputer.microsoft.com/api/data/v1/item/tilejson.json?collection=sentinel-2-l2a&item=S2B_MSIL2A_20250220T080859_R078_T35MRT_20250220T102720&assets=visual&asset_bidx=visual%7C1%2C2%2C3&nodata=0&format=png",
          "rendered_preview": "https://planetarycomputer.microsoft.com/api/data/v1/item/preview.png?collection=sentinel-2-l2a&item=S2B_MSIL2A_20250220T080859_R078_T35MRT_20250220T102720&assets=visual&asset_bidx=visual%7C1%2C2%2C3&nodata=0&format=png"
        },
        "stac_properties": {
          "datetime": "2025-02-20T08:08:59.024000Z",
          "platform": "Sentinel-2B",
          "instruments": [
            "msi"
          ],
          "s2:mgrs_tile": "35MRT",
          "constellation": "Sentinel 2",
          "s2:granule_id": "S2B_OPER_MSI_L2A_TL_2BPS_20250220T102720_A041574_T35MRT_N05.11",
          "eo:cloud_cover": 2.971523,
          "s2:datatake_id": "GS2B_20250220T080859_041574_N05.11",
          "s2:product_uri": "S2B_MSIL2A_20250220T080859_N0511_R078_T35MRT_20250220T102720.SAFE",
          "s2:datastrip_id": "S2B_OPER_MSI_L2A_DS_2BPS_20250220T102720_S20250220T082908_N05.11",
          "s2:product_type": "S2MSI2A",
          "sat:orbit_state": "descending",
          "s2:datatake_type": "INS-NOBS",
          "s2:generation_time": "2025-02-20T10:27:20.000000Z",
          "sat:relative_orbit": 78,
          "s2:water_percentage": 2.585396,
          "s2:mean_solar_zenith": 26.6875037320055,
          "s2:mean_solar_azimuth": 109.678779641183,
          "s2:processing_baseline": "05.11",
          "s2:snow_ice_percentage": 0.0,
          "s2:vegetation_percentage": 65.170109,
          "s2:thin_cirrus_percentage": 0.335951,
          "s2:cloud_shadow_percentage": 2.372384,
          "s2:nodata_pixel_percentage": 0.0,
          "s2:unclassified_percentage": 0.5788,
          "s2:not_vegetated_percentage": 26.244536,
          "s2:degraded_msi_data_percentage": 0.0196,
          "s2:high_proba_clouds_percentage": 1.049595,
          "s2:reflectance_conversion_factor": 1.02468364925269,
          "s2:medium_proba_clouds_percentage": 1.585977,
          "s2:saturated_defective_pixel_percentage": 0.0,
          "proj:code": "EPSG:32735"
        }
      }
    },
    {
      "type": "Feature",
      "id": "S2C_MSIL2A_20250215T081051_R078_T35MRT_20250215T120109",
      "geometry": {
        "type": "Polygon",
        "coordinates": [
          [
            [
              29.6961769,
              -1.8072608
            ],
            [
              30.6818577,
              -1.8055187
            ],
            [
              30.684405,
              -2.796832
            ],
            [
              29.6980446,
              -2.7995317
            ],
            [
              29.6961769,
              -1.8072608
            ]
          ]
        ]
      },
      "properties": {
        "id": "S2C_MSIL2A_20250215T081051_R078_T35MRT_20250215T120109",
        "collection": "sentinel-2-l2a",
        "datetime": "2025-02-15T08:10:51.025000Z",
        "cloud_cover": 6.830166,
        "assets": {
          "AOT": "https://sentinel2l2a01.blob.core.windows.net/sentinel2-l2/35/M/RT/2025/02/15/S2C_MSIL2A_20250215T081051_N0511_R078_T35MRT_20250215T120109.SAFE/GRANULE/L2A_T35MRT_A002336_20250215T083051/IMG_DATA/R10m/T35MRT_20250215T081051_AOT_10m.tif",
          "B01": "https://sentinel2l2a01.blob.core.windows.net/sentinel2-l2/35/M/RT/2025/02/15/S2C_MSIL2A_20250215T081051_N0511_R078_T35MRT_20250215T120109.SAFE/GRANULE/L2A_T35MRT_A002336_20250215T083051/IMG_DATA/R60m/T35MRT_20250215T081051_B01_60m.tif",
          "B02": "https://sentinel2l2a01.blob.core.windows.net/sentinel2-l2/35/M/RT/2025/02/15/S2C_MSIL2A_20250215T081051_N0511_R078_T35MRT_20250215T120109.SAFE/GRANULE/L2A_T35MRT_A002336_20250215T083051/IMG_DATA/R10m/T35MRT_20250215T081051_B02_10m.tif",
          "B03": "https://sentinel2l2a01.blob.core.windows.net/sentinel2-l2/35/M/RT/2025/02/15/S2C_MSIL2A_20250215T081051_N0511_R078_T35MRT_20250215T120109.SAFE/GRANULE/L2A_T35MRT_A002336_20250215T083051/IMG_DATA/R10m/T35MRT_20250215T081051_B03_10m.tif",
          "B04": "https://sentinel2l2a01.blob.core.windows.net/sentinel2-l2/35/M/RT/2025/02/15/S2C_MSIL2A_20250215T081051_N0511_R078_T35MRT_20250215T120109.SAFE/GRANULE/L2A_T35MRT_A002336_20250215T083051/IMG_DATA/R10m/T35MRT_20250215T081051_B04_10m.tif",
          "B05": "https://sentinel2l2a01.blob.core.windows.net/sentinel2-l2/35/M/RT/2025/02/15/S2C_MSIL2A_20250215T081051_N0511_R078_T35MRT_20250215T120109.SAFE/GRANULE/L2A_T35MRT_A002336_20250215T083051/IMG_DATA/R20m/T35MRT_20250215T081051_B05_20m.tif",
          "B06": "https://sentinel2l2a01.blob.core.windows.net/sentinel2-l2/35/M/RT/2025/02/15/S2C_MSIL2A_20250215T081051_N0511_R078_T35MRT_20250215T120109.SAFE/GRANULE/L2A_T35MRT_A002336_20250215T083051/IMG_DATA/R20m/T35MRT_20250215T081051_B06_20m.tif",
          "B07": "https://sentinel2l2a01.blob.core.windows.net/sentinel2-l2/35/M/RT/2025/02/15/S2C_MSIL2A_20250215T081051_N0511_R078_T35MRT_20250215T120109.SAFE/GRANULE/L2A_T35MRT_A002336_20250215T083051/IMG_DATA/R20m/T35MRT_20250215T081051_B07_20m.tif",
          "B08": "https://sentinel2l2a01.blob.core.windows.net/sentinel2-l2/35/M/RT/2025/02/15/S2C_MSIL2A_20250215T081051_N0511_R078_T35MRT_20250215T120109.SAFE/GRANULE/L2A_T35MRT_A002336_20250215T083051/IMG_DATA/R10m/T35MRT_20250215T081051_B08_10m.tif",
          "B09": "https://sentinel2l2a01.blob.core.windows.net/sentinel2-l2/35/M/RT/2025/02/15/S2C_MSIL2A_20250215T081051_N0511_R078_T35MRT_20250215T120109.SAFE/GRANULE/L2A_T35MRT_A002336_20250215T083051/IMG_DATA/R60m/T35MRT_20250215T081051_B09_60m.tif",
          "B11": "https://sentinel2l2a01.blob.core.windows.net/sentinel2-l2/35/M/RT/2025/02/15/S2C_MSIL2A_20250215T081051_N0511_R078_T35MRT_20250215T120109.SAFE/GRANULE/L2A_T35MRT_A002336_20250215T083051/IMG_DATA/R20m/T35MRT_20250215T081051_B11_20m.tif",
          "B12": "https://sentinel2l2a01.blob.core.windows.net/sentinel2-l2/35/M/RT/2025/02/15/S2C_MSIL2A_20250215T081051_N0511_R078_T35MRT_20250215T120109.SAFE/GRANULE/L2A_T35MRT_A002336_20250215T083051/IMG_DATA/R20m/T35MRT_20250215T081051_B12_20m.tif",
          "B8A": "https://sentinel2l2a01.blob.core.windows.net/sentinel2-l2/35/M/RT/2025/02/15/S2C_MSIL2A_20250215T081051_N0511_R078_T35MRT_20250215T120109.SAFE/GRANULE/L2A_T35MRT_A002336_20250215T083051/IMG_DATA/R20m/T35MRT_20250215T081051_B8A_20m.tif",
          "SCL": "https://sentinel2l2a01.blob.core.windows.net/sentinel2-l2/35/M/RT/2025/02/15/S2C_MSIL2A_20250215T081051_N0511_R078_T35MRT_20250215T120109.SAFE/GRANULE/L2A_T35MRT_A002336_20250215T083051/IMG_DATA/R20m/T35MRT_20250215T081051_SCL_20m.tif",
          "WVP": "https://sentinel2l2a01.blob.core.windows.net/sentinel2-l2/35/M/RT/2025/02/15/S2C_MSIL2A_20250215T081051_N0511_R078_T35MRT_20250215T120109.SAFE/GRANULE/L2A_T35MRT_A002336_20250215T083051/IMG_DATA/R10m/T35MRT_20250215T081051_WVP_10m.tif",
          "visual": "https://sentinel2l2a01.blob.core.windows.net/sentinel2-l2/35/M/RT/2025/02/15/S2C_MSIL2A_20250215T081051_N0511_R078_T35MRT_20250215T120109.SAFE/GRANULE/L2A_T35MRT_A002336_20250215T083051/IMG_DATA/R10m/T35MRT_20250215T081051_TCI_10m.tif",
          "safe-manifest": "https://sentinel2l2a01.blob.core.windows.net/sentinel2-l2/35/M/RT/2025/02/15/S2C_MSIL2A_20250215T081051_N0511_R078_T35MRT_20250215T120109.SAFE/manifest.safe",
          "granule-metadata": "https://sentinel2l2a01.blob.core.windows.net/sentinel2-l2/35/M/RT/2025/02/15/S2C_MSIL2A_20250215T081051_N0511_R078_T35MRT_20250215T120109.SAFE/GRANULE/L2A_T35MRT_A002336_20250215T083051/MTD_TL.xml",
          "inspire-metadata": "https://sentinel2l2a01.blob.core.windows.net/sentinel2-l2/35/M/RT/2025/02/15/S2C_MSIL2A_20250215T081051_N0511_R078_T35MRT_20250215T120109.SAFE/INSPIRE.xml",
          "product-metadata": "https://sentinel2l2a01.blob.core.windows.net/sentinel2-l2/35/M/RT/2025/02/15/S2C_MSIL2A_20250215T081051_N0511_R078_T35MRT_20250215T120109.SAFE/MTD_MSIL2A.xml",
          "datastrip-metadata": "https://sentinel2l2a01.blob.core.windows.net/sentinel2-l2/35/M/RT/2025/02/15/S2C_MSIL2A_20250215T081051_N0511_R078_T35MRT_20250215T120109.SAFE/DATASTRIP/DS_2CPS_20250215T120109_S20250215T083051/MTD_DS.xml",
          "tilejson": "https://planetarycomputer.microsoft.com/api/data/v1/item/tilejson.json?collection=sentinel-2-l2a&item=S2C_MSIL2A_20250215T081051_R078_T35MRT_20250215T120109&assets=visual&asset_bidx=visual%7C1%2C2%2C3&nodata=0&format=png",
          "rendered_preview": "https://planetarycomputer.microsoft.com/api/data/v1/item/preview.png?collection=sentinel-2-l2a&item=S2C_MSIL2A_20250215T081051_R078_T35MRT_20250215T120109&assets=visual&asset_bidx=visual%7C1%2C2%2C3&nodata=0&format=png"
        },
        "stac_properties": {
          "datetime": "2025-02-15T08:10:51.025000Z",
          "platform": "Sentinel-2C",
          "instruments": [
            "msi"
          ],
          "s2:mgrs_tile": "35MRT",
          "constellation": "Sentinel 2",
          "s2:granule_id": "S2C_OPER_MSI_L2A_TL_2CPS_20250215T120109_A002336_T35MRT_N05.11",
          "eo:cloud_cover": 6.830166,
          "s2:datatake_id": "GS2C_20250215T081051_002336_N05.11",
          "s2:product_uri": "S2C_MSIL2A_20250215T081051_N0511_R078_T35MRT_20250215T120109.SAFE",
          "s2:datastrip_id": "S2C_OPER_MSI_L2A_DS_2CPS_20250215T120109_S20250215T083051_N05.11",
          "s2:product_type": "S2MSI2A",
          "sat:orbit_state": "descending",
          "s2:datatake_type": "INS-NOBS",
          "s2:generation_time": "2025-02-15T12:01:09.000000Z",
          "sat:relative_orbit": 78,
          "s2:water_percentage": 2.205129,
          "s2:mean_solar_zenith": 27.2638754044832,
          "s2:mean_solar_azimuth": 113.353616513815,
          "s2:processing_baseline": "05.11",
          "s2:snow_ice_percentage": 0.0,
          "s2:vegetation_percentage": 66.168475,
          "s2:thin_cirrus_percentage": 1.054552,
          "s2:cloud_shadow_percentage": 4.391515,
          "s2:nodata_pixel_percentage": 0.0,
          "s2:unclassified_percentage": 1.088464,
          "s2:not_vegetated_percentage": 19.244514,
          "s2:degraded_msi_data_percentage": 0.0208,
          "s2:high_proba_clouds_percentage": 2.524252,
          "s2:reflectance_conversion_factor": 1.02664841495739,
          "s2:medium_proba_clouds_percentage": 3.251363,
          "s2:saturated_defective_pixel_percentage": 0.0,
          "proj:code": "EPSG:32735"
        }
      }
    }
  ]
}