{"type": "FeatureCollection", "name": "self_supervised_review_samples", "features": [{"type": "Feature", "id": "training_2024_20240630_20240626_r004_c000_00046", "properties": {"patch_id": "training_2024_20240630_20240626_r004_c000_00046", "training_tag": "training_2024_20240630_20240626", "year": 2024, "split": "train", "cluster_id": 3, "dominant_interpretation": "vegetation", "weak_source_fraction": 0.537215, "anomaly_score": 1.0, "review_priority": "high_anomaly", "review_reason": "high embedding anomaly", "area_m2": 1638400.0, "review_score": 0.811975, "sampling_role": "candidate_review", "recommended_action": "Inspect first: possible new land-cover regime, sensor artifact, or model blind spot before any retraining.", "centroid_lon": 29.977509569, "centroid_lat": -1.906022161, "sample_rank": 1}, "geometry": {"type": "Polygon", "coordinates": [[[29.971752767, -1.900249756], [29.983246449, -1.90022981], [29.983266371, -1.911794443], [29.971772613, -1.911814511], [29.971752767, -1.900249756]]]}}, {"type": "Feature", "id": "training_2023_20231004_20231006_r004_c007_00053", "properties": {"patch_id": "training_2023_20231004_20231006_r004_c007_00053", "training_tag": "training_2023_20231004_20231006", "year": 2023, "split": "train", "cluster_id": 3, "dominant_interpretation": "vegetation", "weak_source_fraction": 0.545009, "anomaly_score": 1.0, "review_priority": "high_anomaly", "review_reason": "high embedding anomaly", "area_m2": 1638400.0, "review_score": 0.809247, "sampling_role": "candidate_review", "recommended_action": "Inspect first: possible new land-cover regime, sensor artifact, or model blind spot before any retraining.", "centroid_lon": 30.057962621, "centroid_lat": -1.905880225, "sample_rank": 2}, "geometry": {"type": "Polygon", "coordinates": [[[30.05220598, -1.900108519], [30.063698804, -1.900088036], [30.063719262, -1.911651806], [30.052226361, -1.911672414], [30.05220598, -1.900108519]]]}}, {"type": "Feature", "id": "training_2024_20240625_20240626_r004_c000_00046", "properties": {"patch_id": "training_2024_20240625_20240626_r004_c000_00046", "training_tag": "training_2024_20240625_20240626", "year": 2024, "split": "train", "cluster_id": 3, "dominant_interpretation": "vegetation", "weak_source_fraction": 0.537215, "anomaly_score": 0.983325, "review_priority": "high_anomaly", "review_reason": "high embedding anomaly", "area_m2": 1638400.0, "review_score": 0.803637, "sampling_role": "candidate_review", "recommended_action": "Inspect first: possible new land-cover regime, sensor artifact, or model blind spot before any retraining.", "centroid_lon": 29.977509569, "centroid_lat": -1.906022161, "sample_rank": 3}, "geometry": {"type": "Polygon", "coordinates": [[[29.971752767, -1.900249756], [29.983246449, -1.90022981], [29.983266371, -1.911794443], [29.971772613, -1.911814511], [29.971752767, -1.900249756]]]}}, {"type": "Feature", "id": "training_2024_20240625_20240626_r005_c001_00062", "properties": {"patch_id": "training_2024_20240625_20240626_r005_c001_00062", "training_tag": "training_2024_20240625_20240626", "year": 2024, "split": "train", "cluster_id": 2, "dominant_interpretation": "built_up", "weak_source_fraction": 0.562196, "anomaly_score": 1.0, "review_priority": "high_anomaly", "review_reason": "high embedding anomaly", "area_m2": 1638400.0, "review_score": 0.803231, "sampling_role": "candidate_review", "recommended_action": "Inspect first: possible new land-cover regime, sensor artifact, or model blind spot before any retraining.", "centroid_lon": 29.98902325, "centroid_lat": -1.917566687, "sample_rank": 4}, "geometry": {"type": "Polygon", "coordinates": [[[29.983266371, -1.911794443], [29.994760009, -1.911774298], [29.994780129, -1.923338808], [29.983286415, -1.923359075], [29.983266371, -1.911794443]]]}}, {"type": "Feature", "id": "training_2024_20240630_20240626_r005_c001_00062", "properties": {"patch_id": "training_2024_20240630_20240626_r005_c001_00062", "training_tag": "training_2024_20240630_20240626", "year": 2024, "split": "train", "cluster_id": 2, "dominant_interpretation": "built_up", "weak_source_fraction": 0.562196, "anomaly_score": 1.0, "review_priority": "high_anomaly", "review_reason": "high embedding anomaly", "area_m2": 1638400.0, "review_score": 0.803231, "sampling_role": "candidate_review", "recommended_action": "Inspect first: possible new land-cover regime, sensor artifact, or model blind spot before any retraining.", "centroid_lon": 29.98902325, "centroid_lat": -1.917566687, "sample_rank": 5}, "geometry": {"type": "Polygon", "coordinates": [[[29.983266371, -1.911794443], [29.994760009, -1.911774298], [29.994780129, -1.923338808], [29.983286415, -1.923359075], [29.983266371, -1.911794443]]]}}, {"type": "Feature", "id": "training_2025_20250730_20250727_r004_c000_00046", "properties": {"patch_id": "training_2025_20250730_20250727_r004_c000_00046", "training_tag": "training_2025_20250730_20250727", "year": 2025, "split": "validation", "cluster_id": 3, "dominant_interpretation": "vegetation", "weak_source_fraction": 0.537215, "anomaly_score": 0.964057, "review_priority": "high_anomaly", "review_reason": "high embedding anomaly", "area_m2": 1638400.0, "review_score": 0.794003, "sampling_role": "candidate_review", "recommended_action": "Inspect first: possible new land-cover regime, sensor artifact, or model blind spot before any retraining.", "centroid_lon": 29.977509569, "centroid_lat": -1.906022161, "sample_rank": 6}, "geometry": {"type": "Polygon", "coordinates": [[[29.971752767, -1.900249756], [29.983246449, -1.90022981], [29.983266371, -1.911794443], [29.971772613, -1.911814511], [29.971752767, -1.900249756]]]}}, {"type": "Feature", "id": "training_2025_20250806_20250808_r004_c005_00051", "properties": {"patch_id": "training_2025_20250806_20250808_r004_c005_00051", "training_tag": "training_2025_20250806_20250808", "year": 2025, "split": "validation", "cluster_id": 1, "dominant_interpretation": "built_up", "weak_source_fraction": 0.601536, "anomaly_score": 0.97315, "review_priority": "high_anomaly", "review_reason": "high embedding anomaly", "area_m2": 1638400.0, "review_score": 0.776037, "sampling_role": "candidate_review", "recommended_action": "Inspect first: possible new land-cover regime, sensor artifact, or model blind spot before any retraining.", "centroid_lon": 30.034976648, "centroid_lat": -1.905921162, "sample_rank": 7}, "geometry": {"type": "Polygon", "coordinates": [[[30.02921996, -1.900149256], [30.040713031, -1.900128926], [30.040733337, -1.911692945], [30.029240189, -1.911713399], [30.02921996, -1.900149256]]]}}, {"type": "Feature", "id": "training_2025_20250730_20250727_r005_c001_00062", "properties": {"patch_id": "training_2025_20250730_20250727_r005_c001_00062", "training_tag": "training_2025_20250730_20250727", "year": 2025, "split": "validation", "cluster_id": 2, "dominant_interpretation": "built_up", "weak_source_fraction": 0.562196, "anomaly_score": 0.944711, "review_priority": "high_anomaly", "review_reason": "high embedding anomaly", "area_m2": 1638400.0, "review_score": 0.775587, "sampling_role": "candidate_review", "recommended_action": "Inspect first: possible new land-cover regime, sensor artifact, or model blind spot before any retraining.", "centroid_lon": 29.98902325, "centroid_lat": -1.917566687, "sample_rank": 8}, "geometry": {"type": "Polygon", "coordinates": [[[29.983266371, -1.911794443], [29.994760009, -1.911774298], [29.994780129, -1.923338808], [29.983286415, -1.923359075], [29.983266371, -1.911794443]]]}}, {"type": "Feature", "id": "training_2024_20240625_20240626_r004_c007_00053", "properties": {"patch_id": "training_2024_20240625_20240626_r004_c007_00053", "training_tag": "training_2024_20240625_20240626", "year": 2024, "split": "train", "cluster_id": 6, "dominant_interpretation": "vegetation", "weak_source_fraction": 0.545009, "anomaly_score": 0.926737, "review_priority": "high_anomaly", "review_reason": "high embedding anomaly", "area_m2": 1638400.0, "review_score": 0.772615, "sampling_role": "candidate_review", "recommended_action": "Inspect first: possible new land-cover regime, sensor artifact, or model blind spot before any retraining.", "centroid_lon": 30.057962621, "centroid_lat": -1.905880225, "sample_rank": 9}, "geometry": {"type": "Polygon", "coordinates": [[[30.05220598, -1.900108519], [30.063698804, -1.900088036], [30.063719262, -1.911651806], [30.052226361, -1.911672414], [30.05220598, -1.900108519]]]}}, {"type": "Feature", "id": "training_2025_20250806_20250808_r000_c000_00000", "properties": {"patch_id": "training_2025_20250806_20250808_r000_c000_00000", "training_tag": "training_2025_20250806_20250808", "year": 2025, "split": "validation", "cluster_id": 2, "dominant_interpretation": "vegetation", "weak_source_fraction": 0.593518, "anomaly_score": 0.953503, "review_priority": "high_anomaly", "review_reason": "high embedding anomaly", "area_m2": 1638400.0, "review_score": 0.76902, "sampling_role": "candidate_review", "recommended_action": "Inspect first: possible new land-cover regime, sensor artifact, or model blind spot before any retraining.", "centroid_lon": 29.977430998, "centroid_lat": -1.859763371, "sample_rank": 10}, "geometry": {"type": "Polygon", "coordinates": [[[29.971674588, -1.85399072], [29.983167969, -1.853971259], [29.983187407, -1.865535899], [29.971693952, -1.865555482], [29.971674588, -1.85399072]]]}}, {"type": "Feature", "id": "training_2024_20240625_20240626_r005_c002_00063", "properties": {"patch_id": "training_2024_20240625_20240626_r005_c002_00063", "training_tag": "training_2024_20240625_20240626", "year": 2024, "split": "train", "cluster_id": 4, "dominant_interpretation": "built_up", "weak_source_fraction": 0.694132, "anomaly_score": 1.0, "review_priority": "high_anomaly", "review_reason": "high embedding anomaly", "area_m2": 1638400.0, "review_score": 0.757054, "sampling_role": "candidate_review", "recommended_action": "Inspect first: possible new land-cover regime, sensor artifact, or model blind spot before any retraining.", "centroid_lon": 30.000516865, "centroid_lat": -1.917546442, "sample_rank": 11}, "geometry": {"type": "Polygon", "coordinates": [[[29.994760009, -1.911774298], [30.006253524, -1.911754076], [30.006273722, -1.923318463], [29.994780129, -1.923338808], [29.994760009, -1.911774298]]]}}, {"type": "Feature", "id": "training_2024_20240804_20240801_r004_c005_00051", "properties": {"patch_id": "training_2024_20240804_20240801_r004_c005_00051", "training_tag": "training_2024_20240804_20240801", "year": 2024, "split": "train", "cluster_id": 2, "dominant_interpretation": "built_up", "weak_source_fraction": 0.601536, "anomaly_score": 0.93137, "review_priority": "high_anomaly", "review_reason": "high embedding anomaly", "area_m2": 1638400.0, "review_score": 0.755147, "sampling_role": "candidate_review", "recommended_action": "Inspect first: possible new land-cover regime, sensor artifact, or model blind spot before any retraining.", "centroid_lon": 30.034976648, "centroid_lat": -1.905921162, "sample_rank": 12}, "geometry": {"type": "Polygon", "coordinates": [[[30.02921996, -1.900149256], [30.040713031, -1.900128926], [30.040733337, -1.911692945], [30.029240189, -1.911713399], [30.02921996, -1.900149256]]]}}, {"type": "Feature", "id": "training_2024_20240625_20240626_r000_c000_00000", "properties": {"patch_id": "training_2024_20240625_20240626_r000_c000_00000", "training_tag": "training_2024_20240625_20240626", "year": 2024, "split": "train", "cluster_id": 2, "dominant_interpretation": "vegetation", "weak_source_fraction": 0.593518, "anomaly_score": 0.902112, "review_priority": "high_anomaly", "review_reason": "high embedding anomaly", "area_m2": 1638400.0, "review_score": 0.743325, "sampling_role": "candidate_review", "recommended_action": "Inspect first: possible new land-cover regime, sensor artifact, or model blind spot before any retraining.", "centroid_lon": 29.977430998, "centroid_lat": -1.859763371, "sample_rank": 13}, "geometry": {"type": "Polygon", "coordinates": [[[29.971674588, -1.85399072], [29.983167969, -1.853971259], [29.983187407, -1.865535899], [29.971693952, -1.865555482], [29.971674588, -1.85399072]]]}}, {"type": "Feature", "id": "training_2024_20240625_20240626_r003_c005_00036", "properties": {"patch_id": "training_2024_20240625_20240626_r003_c005_00036", "training_tag": "training_2024_20240625_20240626", "year": 2024, "split": "train", "cluster_id": 6, "dominant_interpretation": "vegetation", "weak_source_fraction": 0.806591, "anomaly_score": 1.0, "review_priority": "high_anomaly", "review_reason": "high embedding anomaly", "area_m2": 1638400.0, "review_score": 0.717693, "sampling_role": "candidate_review", "recommended_action": "Inspect first: possible new land-cover regime, sensor artifact, or model blind spot before any retraining.", "centroid_lon": 30.034956443, "centroid_lat": -1.894357081, "sample_rank": 14}, "geometry": {"type": "Polygon", "coordinates": [[[30.029199854, -1.888585112], [30.04069285, -1.888564906], [30.040713031, -1.900128926], [30.02921996, -1.900149256], [30.029199854, -1.888585112]]]}}, {"type": "Feature", "id": "training_2025_20250220_20250221_r003_c005_00036", "properties": {"patch_id": "training_2025_20250220_20250221_r003_c005_00036", "training_tag": "training_2025_20250220_20250221", "year": 2025, "split": "validation", "cluster_id": 1, "dominant_interpretation": "vegetation", "weak_source_fraction": 0.806591, "anomaly_score": 1.0, "review_priority": "high_anomaly", "review_reason": "high embedding anomaly", "area_m2": 1638400.0, "review_score": 0.717693, "sampling_role": "candidate_review", "recommended_action": "Inspect first: possible new land-cover regime, sensor artifact, or model blind spot before any retraining.", "centroid_lon": 30.034956443, "centroid_lat": -1.894357081, "sample_rank": 15}, "geometry": {"type": "Polygon", "coordinates": [[[30.029199854, -1.888585112], [30.04069285, -1.888564906], [30.040713031, -1.900128926], [30.02921996, -1.900149256], [30.029199854, -1.888585112]]]}}, {"type": "Feature", "id": "training_2024_20240630_20240626_r003_c005_00036", "properties": {"patch_id": "training_2024_20240630_20240626_r003_c005_00036", "training_tag": "training_2024_20240630_20240626", "year": 2024, "split": "train", "cluster_id": 1, "dominant_interpretation": "vegetation", "weak_source_fraction": 0.806591, "anomaly_score": 0.998907, "review_priority": "high_anomaly", "review_reason": "high embedding anomaly", "area_m2": 1638400.0, "review_score": 0.717147, "sampling_role": "candidate_review", "recommended_action": "Inspect first: possible new land-cover regime, sensor artifact, or model blind spot before any retraining.", "centroid_lon": 30.034956443, "centroid_lat": -1.894357081, "sample_rank": 16}, "geometry": {"type": "Polygon", "coordinates": [[[30.029199854, -1.888585112], [30.04069285, -1.888564906], [30.040713031, -1.900128926], [30.02921996, -1.900149256], [30.029199854, -1.888585112]]]}}, {"type": "Feature", "id": "training_2024_20240725_20240722_r000_c001_00001", "properties": {"patch_id": "training_2024_20240725_20240722_r000_c001_00001", "training_tag": "training_2024_20240725_20240722", "year": 2024, "split": "train", "cluster_id": 4, "dominant_interpretation": "built_up", "weak_source_fraction": 0.81058, "anomaly_score": 1.0, "review_priority": "high_anomaly", "review_reason": "high embedding anomaly", "area_m2": 1638400.0, "review_score": 0.716297, "sampling_role": "candidate_review", "recommended_action": "Inspect first: possible new land-cover regime, sensor artifact, or model blind spot before any retraining.", "centroid_lon": 29.988924355, "centroid_lat": -1.859743812, "sample_rank": 17}, "geometry": {"type": "Polygon", "coordinates": [[[29.983167969, -1.853971259], [29.994661228, -1.853951724], [29.994680741, -1.865516242], [29.983187407, -1.865535899], [29.983167969, -1.853971259]]]}}, {"type": "Feature", "id": "training_2023_20230716_20230714_r006_c001_00077", "properties": {"patch_id": "training_2023_20230716_20230714_r006_c001_00077", "training_tag": "training_2023_20230716_20230714", "year": 2023, "split": "train", "cluster_id": 3, "dominant_interpretation": "built_up", "weak_source_fraction": 0.818321, "anomaly_score": 1.0, "review_priority": "high_anomaly", "review_reason": "high embedding anomaly", "area_m2": 1638400.0, "review_score": 0.713588, "sampling_role": "candidate_review", "recommended_action": "Inspect first: possible new land-cover regime, sensor artifact, or model blind spot before any retraining.", "centroid_lon": 29.989043393, "centroid_lat": -1.929131257, "sample_rank": 18}, "geometry": {"type": "Polygon", "coordinates": [[[29.983286415, -1.923359075], [29.994780129, -1.923338808], [29.994800372, -1.934903315], [29.98330658, -1.934923705], [29.983286415, -1.923359075]]]}}, {"type": "Feature", "id": "training_2023_20230726_20230726_r006_c001_00077", "properties": {"patch_id": "training_2023_20230726_20230726_r006_c001_00077", "training_tag": "training_2023_20230726_20230726", "year": 2023, "split": "train", "cluster_id": 3, "dominant_interpretation": "built_up", "weak_source_fraction": 0.818321, "anomaly_score": 1.0, "review_priority": "high_anomaly", "review_reason": "high embedding anomaly", "area_m2": 1638400.0, "review_score": 0.713588, "sampling_role": "candidate_review", "recommended_action": "Inspect first: possible new land-cover regime, sensor artifact, or model blind spot before any retraining.", "centroid_lon": 29.989043393, "centroid_lat": -1.929131257, "sample_rank": 19}, "geometry": {"type": "Polygon", "coordinates": [[[29.983286415, -1.923359075], [29.994780129, -1.923338808], [29.994800372, -1.934903315], [29.98330658, -1.934923705], [29.983286415, -1.923359075]]]}}, {"type": "Feature", "id": "training_2023_20231004_20231006_r006_c001_00077", "properties": {"patch_id": "training_2023_20231004_20231006_r006_c001_00077", "training_tag": "training_2023_20231004_20231006", "year": 2023, "split": "train", "cluster_id": 2, "dominant_interpretation": "built_up", "weak_source_fraction": 0.818321, "anomaly_score": 1.0, "review_priority": "high_anomaly", "review_reason": "high embedding anomaly", "area_m2": 1638400.0, "review_score": 0.713588, "sampling_role": "candidate_review", "recommended_action": "Inspect first: possible new land-cover regime, sensor artifact, or model blind spot before any retraining.", "centroid_lon": 29.989043393, "centroid_lat": -1.929131257, "sample_rank": 20}, "geometry": {"type": "Polygon", "coordinates": [[[29.983286415, -1.923359075], [29.994780129, -1.923338808], [29.994800372, -1.934903315], [29.98330658, -1.934923705], [29.983286415, -1.923359075]]]}}, {"type": "Feature", "id": "training_2024_20240625_20240626_r006_c001_00077", "properties": {"patch_id": "training_2024_20240625_20240626_r006_c001_00077", "training_tag": "training_2024_20240625_20240626", "year": 2024, "split": "train", "cluster_id": 2, "dominant_interpretation": "built_up", "weak_source_fraction": 0.818321, "anomaly_score": 1.0, "review_priority": "high_anomaly", "review_reason": "high embedding anomaly", "area_m2": 1638400.0, "review_score": 0.713588, "sampling_role": "candidate_review", "recommended_action": "Inspect first: possible new land-cover regime, sensor artifact, or model blind spot before any retraining.", "centroid_lon": 29.989043393, "centroid_lat": -1.929131257, "sample_rank": 21}, "geometry": {"type": "Polygon", "coordinates": [[[29.983286415, -1.923359075], [29.994780129, -1.923338808], [29.994800372, -1.934903315], [29.98330658, -1.934923705], [29.983286415, -1.923359075]]]}}, {"type": "Feature", "id": "training_2024_20240630_20240626_r006_c001_00077", "properties": {"patch_id": "training_2024_20240630_20240626_r006_c001_00077", "training_tag": "training_2024_20240630_20240626", "year": 2024, "split": "train", "cluster_id": 2, "dominant_interpretation": "built_up", "weak_source_fraction": 0.818321, "anomaly_score": 1.0, "review_priority": "high_anomaly", "review_reason": "high embedding anomaly", "area_m2": 1638400.0, "review_score": 0.713588, "sampling_role": "candidate_review", "recommended_action": "Inspect first: possible new land-cover regime, sensor artifact, or model blind spot before any retraining.", "centroid_lon": 29.989043393, "centroid_lat": -1.929131257, "sample_rank": 22}, "geometry": {"type": "Polygon", "coordinates": [[[29.983286415, -1.923359075], [29.994780129, -1.923338808], [29.994800372, -1.934903315], [29.98330658, -1.934923705], [29.983286415, -1.923359075]]]}}, {"type": "Feature", "id": "training_2024_20240804_20240801_r006_c001_00077", "properties": {"patch_id": "training_2024_20240804_20240801_r006_c001_00077", "training_tag": "training_2024_20240804_20240801", "year": 2024, "split": "train", "cluster_id": 2, "dominant_interpretation": "built_up", "weak_source_fraction": 0.818321, "anomaly_score": 1.0, "review_priority": "high_anomaly", "review_reason": "high embedding anomaly", "area_m2": 1638400.0, "review_score": 0.713588, "sampling_role": "candidate_review", "recommended_action": "Inspect first: possible new land-cover regime, sensor artifact, or model blind spot before any retraining.", "centroid_lon": 29.989043393, "centroid_lat": -1.929131257, "sample_rank": 23}, "geometry": {"type": "Polygon", "coordinates": [[[29.983286415, -1.923359075], [29.994780129, -1.923338808], [29.994800372, -1.934903315], [29.98330658, -1.934923705], [29.983286415, -1.923359075]]]}}, {"type": "Feature", "id": "training_2025_20250220_20250221_r006_c001_00077", "properties": {"patch_id": "training_2025_20250220_20250221_r006_c001_00077", "training_tag": "training_2025_20250220_20250221", "year": 2025, "split": "validation", "cluster_id": 2, "dominant_interpretation": "built_up", "weak_source_fraction": 0.818321, "anomaly_score": 1.0, "review_priority": "high_anomaly", "review_reason": "high embedding anomaly", "area_m2": 1638400.0, "review_score": 0.713588, "sampling_role": "candidate_review", "recommended_action": "Inspect first: possible new land-cover regime, sensor artifact, or model blind spot before any retraining.", "centroid_lon": 29.989043393, "centroid_lat": -1.929131257, "sample_rank": 24}, "geometry": {"type": "Polygon", "coordinates": [[[29.983286415, -1.923359075], [29.994780129, -1.923338808], [29.994800372, -1.934903315], [29.98330658, -1.934923705], [29.983286415, -1.923359075]]]}}, {"type": "Feature", "id": "training_2025_20250730_20250727_r006_c001_00077", "properties": {"patch_id": "training_2025_20250730_20250727_r006_c001_00077", "training_tag": "training_2025_20250730_20250727", "year": 2025, "split": "validation", "cluster_id": 2, "dominant_interpretation": "built_up", "weak_source_fraction": 0.818321, "anomaly_score": 1.0, "review_priority": "high_anomaly", "review_reason": "high embedding anomaly", "area_m2": 1638400.0, "review_score": 0.713588, "sampling_role": "candidate_review", "recommended_action": "Inspect first: possible new land-cover regime, sensor artifact, or model blind spot before any retraining.", "centroid_lon": 29.989043393, "centroid_lat": -1.929131257, "sample_rank": 25}, "geometry": {"type": "Polygon", "coordinates": [[[29.983286415, -1.923359075], [29.994780129, -1.923338808], [29.994800372, -1.934903315], [29.98330658, -1.934923705], [29.983286415, -1.923359075]]]}}, {"type": "Feature", "id": "training_2025_20250806_20250808_r006_c001_00077", "properties": {"patch_id": "training_2025_20250806_20250808_r006_c001_00077", "training_tag": "training_2025_20250806_20250808", "year": 2025, "split": "validation", "cluster_id": 2, "dominant_interpretation": "built_up", "weak_source_fraction": 0.818321, "anomaly_score": 1.0, "review_priority": "high_anomaly", "review_reason": "high embedding anomaly", "area_m2": 1638400.0, "review_score": 0.713588, "sampling_role": "candidate_review", "recommended_action": "Inspect first: possible new land-cover regime, sensor artifact, or model blind spot before any retraining.", "centroid_lon": 29.989043393, "centroid_lat": -1.929131257, "sample_rank": 26}, "geometry": {"type": "Polygon", "coordinates": [[[29.983286415, -1.923359075], [29.994780129, -1.923338808], [29.994800372, -1.934903315], [29.98330658, -1.934923705], [29.983286415, -1.923359075]]]}}, {"type": "Feature", "id": "training_2025_20250829_20250901_r006_c001_00077", "properties": {"patch_id": "training_2025_20250829_20250901_r006_c001_00077", "training_tag": "training_2025_20250829_20250901", "year": 2025, "split": "validation", "cluster_id": 2, "dominant_interpretation": "built_up", "weak_source_fraction": 0.818321, "anomaly_score": 1.0, "review_priority": "high_anomaly", "review_reason": "high embedding anomaly", "area_m2": 1638400.0, "review_score": 0.713588, "sampling_role": "candidate_review", "recommended_action": "Inspect first: possible new land-cover regime, sensor artifact, or model blind spot before any retraining.", "centroid_lon": 29.989043393, "centroid_lat": -1.929131257, "sample_rank": 27}, "geometry": {"type": "Polygon", "coordinates": [[[29.983286415, -1.923359075], [29.994780129, -1.923338808], [29.994800372, -1.934903315], [29.98330658, -1.934923705], [29.983286415, -1.923359075]]]}}, {"type": "Feature", "id": "training_2023_20230716_20230714_r004_c000_00046", "properties": {"patch_id": "training_2023_20230716_20230714_r004_c000_00046", "training_tag": "training_2023_20230716_20230714", "year": 2023, "split": "train", "cluster_id": 3, "dominant_interpretation": "vegetation", "weak_source_fraction": 0.537215, "anomaly_score": 0.877233, "review_priority": "weak_support_review", "review_reason": "mixed or weak-source support", "area_m2": 1638400.0, "review_score": 0.713091, "sampling_role": "candidate_review", "recommended_action": "Review with imagery/OSM/indices and either assign a corrected class or mark as mixed/unknown.", "centroid_lon": 29.977509569, "centroid_lat": -1.906022161, "sample_rank": 28}, "geometry": {"type": "Polygon", "coordinates": [[[29.971752767, -1.900249756], [29.983246449, -1.90022981], [29.983266371, -1.911794443], [29.971772613, -1.911814511], [29.971752767, -1.900249756]]]}}, {"type": "Feature", "id": "training_2024_20240625_20240626_r003_c008_00039", "properties": {"patch_id": "training_2024_20240625_20240626_r003_c008_00039", "training_tag": "training_2024_20240625_20240626", "year": 2024, "split": "train", "cluster_id": 3, "dominant_interpretation": "vegetation", "weak_source_fraction": 0.820609, "anomaly_score": 1.0, "review_priority": "high_anomaly", "review_reason": "high embedding anomaly", "area_m2": 1638400.0, "review_score": 0.712787, "sampling_role": "candidate_review", "recommended_action": "Inspect first: possible new land-cover regime, sensor artifact, or model blind spot before any retraining.", "centroid_lon": 30.069434987, "centroid_lat": -1.894295932, "sample_rank": 29}, "geometry": {"type": "Polygon", "coordinates": [[[30.06367847, -1.888524264], [30.075171094, -1.888503829], [30.075191504, -1.900067476], [30.063698804, -1.900088036], [30.06367847, -1.888524264]]]}}, {"type": "Feature", "id": "training_2025_20250730_20250727_r003_c005_00036", "properties": {"patch_id": "training_2025_20250730_20250727_r003_c005_00036", "training_tag": "training_2025_20250730_20250727", "year": 2025, "split": "validation", "cluster_id": 1, "dominant_interpretation": "vegetation", "weak_source_fraction": 0.806591, "anomaly_score": 0.989568, "review_priority": "high_anomaly", "review_reason": "high embedding anomaly", "area_m2": 1638400.0, "review_score": 0.712477, "sampling_role": "candidate_review", "recommended_action": "Inspect first: possible new land-cover regime, sensor artifact, or model blind spot before any retraining.", "centroid_lon": 30.034956443, "centroid_lat": -1.894357081, "sample_rank": 30}, "geometry": {"type": "Polygon", "coordinates": [[[30.029199854, -1.888585112], [30.04069285, -1.888564906], [30.040713031, -1.900128926], [30.02921996, -1.900149256], [30.029199854, -1.888585112]]]}}, {"type": "Feature", "id": "training_2023_20231004_20231006_r005_c000_00061", "properties": {"patch_id": "training_2023_20231004_20231006_r005_c000_00061", "training_tag": "training_2023_20231004_20231006", "year": 2023, "split": "train", "cluster_id": 2, "dominant_interpretation": "built_up", "weak_source_fraction": 0.827149, "anomaly_score": 1.0, "review_priority": "high_anomaly", "review_reason": "high embedding anomaly", "area_m2": 1638400.0, "review_score": 0.710498, "sampling_role": "candidate_review", "recommended_action": "Inspect first: possible new land-cover regime, sensor artifact, or model blind spot before any retraining.", "centroid_lon": 29.977529514, "centroid_lat": -1.917586854, "sample_rank": 31}, "geometry": {"type": "Polygon", "coordinates": [[[29.971772613, -1.911814511], [29.983266371, -1.911794443], [29.983286415, -1.923359075], [29.97179258, -1.923379264], [29.971772613, -1.911814511]]]}}, {"type": "Feature", "id": "training_2025_20250220_20250221_r005_c000_00061", "properties": {"patch_id": "training_2025_20250220_20250221_r005_c000_00061", "training_tag": "training_2025_20250220_20250221", "year": 2025, "split": "validation", "cluster_id": 2, "dominant_interpretation": "built_up", "weak_source_fraction": 0.827149, "anomaly_score": 1.0, "review_priority": "high_anomaly", "review_reason": "high embedding anomaly", "area_m2": 1638400.0, "review_score": 0.710498, "sampling_role": "candidate_review", "recommended_action": "Inspect first: possible new land-cover regime, sensor artifact, or model blind spot before any retraining.", "centroid_lon": 29.977529514, "centroid_lat": -1.917586854, "sample_rank": 32}, "geometry": {"type": "Polygon", "coordinates": [[[29.971772613, -1.911814511], [29.983266371, -1.911794443], [29.983286415, -1.923359075], [29.97179258, -1.923379264], [29.971772613, -1.911814511]]]}}, {"type": "Feature", "id": "training_2025_20250730_20250727_r005_c000_00061", "properties": {"patch_id": "training_2025_20250730_20250727_r005_c000_00061", "training_tag": "training_2025_20250730_20250727", "year": 2025, "split": "validation", "cluster_id": 2, "dominant_interpretation": "built_up", "weak_source_fraction": 0.827149, "anomaly_score": 1.0, "review_priority": "high_anomaly", "review_reason": "high embedding anomaly", "area_m2": 1638400.0, "review_score": 0.710498, "sampling_role": "candidate_review", "recommended_action": "Inspect first: possible new land-cover regime, sensor artifact, or model blind spot before any retraining.", "centroid_lon": 29.977529514, "centroid_lat": -1.917586854, "sample_rank": 33}, "geometry": {"type": "Polygon", "coordinates": [[[29.971772613, -1.911814511], [29.983266371, -1.911794443], [29.983286415, -1.923359075], [29.97179258, -1.923379264], [29.971772613, -1.911814511]]]}}, {"type": "Feature", "id": "training_2024_20240625_20240626_r005_c006_00067", "properties": {"patch_id": "training_2024_20240625_20240626_r005_c006_00067", "training_tag": "training_2024_20240625_20240626", "year": 2024, "split": "train", "cluster_id": 6, "dominant_interpretation": "vegetation", "weak_source_fraction": 0.844808, "anomaly_score": 1.0, "review_priority": "high_anomaly", "review_reason": "high embedding anomaly", "area_m2": 1638400.0, "review_score": 0.704317, "sampling_role": "candidate_review", "recommended_action": "Inspect first: possible new land-cover regime, sensor artifact, or model blind spot before any retraining.", "centroid_lon": 30.046490102, "centroid_lat": -1.917464688, "sample_rank": 34}, "geometry": {"type": "Polygon", "coordinates": [[[30.040733337, -1.911692945], [30.052226361, -1.911672414], [30.052246867, -1.923236307], [30.040753765, -1.923256962], [30.040733337, -1.911692945]]]}}, {"type": "Feature", "id": "training_2023_20230726_20230726_r004_c005_00051", "properties": {"patch_id": "training_2023_20230726_20230726_r004_c005_00051", "training_tag": "training_2023_20230726_20230726", "year": 2023, "split": "train", "cluster_id": 2, "dominant_interpretation": "built_up", "weak_source_fraction": 0.601536, "anomaly_score": 0.897183, "review_priority": "weak_support_review", "review_reason": "mixed or weak-source support", "area_m2": 1638400.0, "review_score": 0.700554, "sampling_role": "candidate_review", "recommended_action": "Review with imagery/OSM/indices and either assign a corrected class or mark as mixed/unknown.", "centroid_lon": 30.034976648, "centroid_lat": -1.905921162, "sample_rank": 35}, "geometry": {"type": "Polygon", "coordinates": [[[30.02921996, -1.900149256], [30.040713031, -1.900128926], [30.040733337, -1.911692945], [30.029240189, -1.911713399], [30.02921996, -1.900149256]]]}}, {"type": "Feature", "id": "training_2023_20230721_20230723_r001_c014_00008", "properties": {"patch_id": "training_2023_20230721_20230723_r001_c014_00008", "training_tag": "training_2023_20230721_20230723", "year": 2023, "split": "train", "cluster_id": 2, "dominant_interpretation": "built_up", "weak_source_fraction": 0.768632, "anomaly_score": 0.932538, "review_priority": "high_anomaly", "review_reason": "high embedding anomaly", "area_m2": 1638400.0, "review_score": 0.697248, "sampling_role": "candidate_review", "recommended_action": "Inspect first: possible new land-cover regime, sensor artifact, or model blind spot before any retraining.", "centroid_lon": 30.138347299, "centroid_lat": -1.871045669, "sample_rank": 36}, "geometry": {"type": "Polygon", "coordinates": [[[30.132591135, -1.865274479], [30.144082852, -1.865253843], [30.144103462, -1.876816732], [30.13261167, -1.876837496], [30.132591135, -1.865274479]]]}}, {"type": "Feature", "id": "training_2025_20250829_20250901_r004_c000_00046", "properties": {"patch_id": "training_2025_20250829_20250901_r004_c000_00046", "training_tag": "training_2025_20250829_20250901", "year": 2025, "split": "validation", "cluster_id": 3, "dominant_interpretation": "vegetation", "weak_source_fraction": 0.537215, "anomaly_score": 0.843572, "review_priority": "weak_support_review", "review_reason": "mixed or weak-source support", "area_m2": 1638400.0, "review_score": 0.696261, "sampling_role": "candidate_review", "recommended_action": "Review with imagery/OSM/indices and either assign a corrected class or mark as mixed/unknown.", "centroid_lon": 29.977509569, "centroid_lat": -1.906022161, "sample_rank": 37}, "geometry": {"type": "Polygon", "coordinates": [[[29.971752767, -1.900249756], [29.983246449, -1.90022981], [29.983266371, -1.911794443], [29.971772613, -1.911814511], [29.971752767, -1.900249756]]]}}, {"type": "Feature", "id": "training_2025_20250220_20250221_r004_c000_00046", "properties": {"patch_id": "training_2025_20250220_20250221_r004_c000_00046", "training_tag": "training_2025_20250220_20250221", "year": 2025, "split": "validation", "cluster_id": 3, "dominant_interpretation": "vegetation", "weak_source_fraction": 0.537215, "anomaly_score": 0.838387, "review_priority": "weak_support_review", "review_reason": "mixed or weak-source support", "area_m2": 1638400.0, "review_score": 0.693668, "sampling_role": "candidate_review", "recommended_action": "Review with imagery/OSM/indices and either assign a corrected class or mark as mixed/unknown.", "centroid_lon": 29.977509569, "centroid_lat": -1.906022161, "sample_rank": 38}, "geometry": {"type": "Polygon", "coordinates": [[[29.971752767, -1.900249756], [29.983246449, -1.90022981], [29.983266371, -1.911794443], [29.971772613, -1.911814511], [29.971752767, -1.900249756]]]}}, {"type": "Feature", "id": "training_2023_20230726_20230726_r004_c000_00046", "properties": {"patch_id": "training_2023_20230726_20230726_r004_c000_00046", "training_tag": "training_2023_20230726_20230726", "year": 2023, "split": "train", "cluster_id": 3, "dominant_interpretation": "vegetation", "weak_source_fraction": 0.537215, "anomaly_score": 0.828996, "review_priority": "weak_support_review", "review_reason": "mixed or weak-source support", "area_m2": 1638400.0, "review_score": 0.688973, "sampling_role": "candidate_review", "recommended_action": "Review with imagery/OSM/indices and either assign a corrected class or mark as mixed/unknown.", "centroid_lon": 29.977509569, "centroid_lat": -1.906022161, "sample_rank": 39}, "geometry": {"type": "Polygon", "coordinates": [[[29.971752767, -1.900249756], [29.983246449, -1.90022981], [29.983266371, -1.911794443], [29.971772613, -1.911814511], [29.971752767, -1.900249756]]]}}, {"type": "Feature", "id": "training_2025_20250806_20250808_r005_c001_00062", "properties": {"patch_id": "training_2025_20250806_20250808_r005_c001_00062", "training_tag": "training_2025_20250806_20250808", "year": 2025, "split": "validation", "cluster_id": 3, "dominant_interpretation": "built_up", "weak_source_fraction": 0.562196, "anomaly_score": 0.836055, "review_priority": "weak_support_review", "review_reason": "mixed or weak-source support", "area_m2": 1638400.0, "review_score": 0.683759, "sampling_role": "candidate_review", "recommended_action": "Review with imagery/OSM/indices and either assign a corrected class or mark as mixed/unknown.", "centroid_lon": 29.98902325, "centroid_lat": -1.917566687, "sample_rank": 40}, "geometry": {"type": "Polygon", "coordinates": [[[29.983266371, -1.911794443], [29.994760009, -1.911774298], [29.994780129, -1.923338808], [29.983286415, -1.923359075], [29.983266371, -1.911794443]]]}}]}